{"type":"FeatureCollection","features":[{"type":"Feature","geometry":{"type":"MultiPolygon","coordinates":[[[[-97.9384,30.3367],[-97.9363,30.3291],[-97.9276,30.3246],[-97.9217,30.3239],[-97.9211,30.3249],[-97.921,30.3238],[-97.9206,30.3249],[-97.9113,30.3286],[-97.9107,30.3274],[-97.9106,30.329],[-97.9084,30.3302],[-97.9074,30.3278],[-97.9117,30.3211],[-97.9085,30.3101],[-97.8951,30.3302],[-97.8911,30.3287],[-97.8886,30.3329],[-97.8891,30.3363],[-97.8848,30.339],[-97.8854,30.3404],[-97.8823,30.3413],[-97.8822,30.3396],[-97.8803,30.3393],[-97.8773,30.3428],[-97.8685,30.3475],[-97.8666,30.3474],[-97.8648,30.35],[-97.8578,30.352],[-97.8575,30.3496],[-97.8543,30.35],[-97.851,30.3473],[-97.851,30.3453],[-97.8483,30.3453],[-97.8479,30.3438],[-97.8498,30.3439],[-97.8492,30.3423],[-97.8466,30.3431],[-97.8463,30.3413],[-97.85,30.3421],[-97.8538,30.3395],[-97.8494,30.3383],[-97.8506,30.3378],[-97.8484,30.3361],[-97.8471,30.3298],[-97.8482,30.3282],[-97.8454,30.3264],[-97.8462,30.3239],[-97.8454,30.322],[-97.8416,30.3227],[-97.8348,30.3218],[-97.8298,30.3227],[-97.8262,30.3251],[-97.8249,30.3239],[-97.8248,30.3222],[-97.8302,30.3167],[-97.83,30.3139],[-97.8317,30.3127],[-97.8295,30.3076],[-97.8318,30.3065],[-97.8282,30.3026],[-97.8214,30.3061],[-97.8216,30.3094],[-97.8247,30.312],[-97.8237,30.3138],[-97.8219,30.3141],[-97.8182,30.3115],[-97.8173,30.3078],[-97.8149,30.3067],[-97.7942,30.3393],[-97.7907,30.3385],[-97.79,30.3361],[-97.788,30.3356],[-97.7849,30.3322],[-97.7847,30.3298],[-97.7812,30.3302],[-97.7837,30.3278],[-97.7811,30.3265],[-97.7806,30.3228],[-97.7831,30.322],[-97.7846,30.3194],[-97.7831,30.3181],[-97.7802,30.3188],[-97.7812,30.3132],[-97.7846,30.3075],[-97.7838,30.3071],[-97.7867,30.305],[-97.7885,30.3002],[-97.7935,30.3043],[-97.7959,30.3045],[-97.7918,30.2981],[-97.7905,30.2985],[-97.7919,30.2961],[-97.7902,30.2945],[-97.7934,30.2951],[-97.7999,30.2899],[-97.7935,30.2868],[-97.7948,30.2847],[-97.7905,30.284],[-97.7896,30.2854],[-97.7875,30.2834],[-97.791,30.2801],[-97.7892,30.2793],[-97.7869,30.2829],[-97.7771,30.2737],[-97.7814,30.2684],[-97.78,30.2676],[-97.7828,30.2662],[-97.7876,30.2685],[-97.7882,30.2701],[-97.7951,30.2686],[-97.8015,30.2753],[-97.8026,30.2736],[-97.806,30.2752],[-97.8084,30.2717],[-97.8111,30.2721],[-97.8122,30.2743],[-97.8188,30.2775],[-97.8265,30.2877],[-97.8279,30.2912],[-97.8272,30.2946],[-97.8334,30.2967],[-97.8356,30.299],[-97.8373,30.2987],[-97.8346,30.2959],[-97.8306,30.2944],[-97.833,30.2846],[-97.8302,30.285],[-97.829,30.2836],[-97.8295,30.2824],[-97.8312,30.2837],[-97.8323,30.2826],[-97.8294,30.2788],[-97.8316,30.2728],[-97.8357,30.2754],[-97.8339,30.2795],[-97.8371,30.2748],[-97.8491,30.2553],[-97.8458,30.2538],[-97.8487,30.2496],[-97.8737,30.2617],[-97.875,30.2598],[-97.8874,30.2657],[-97.8834,30.272],[-97.8888,30.2747],[-97.8881,30.2758],[-97.8867,30.2751],[-97.8852,30.2814],[-97.8896,30.2842],[-97.8871,30.2872],[-97.8829,30.2839],[-97.8824,30.2866],[-97.885,30.2878],[-97.8883,30.2943],[-97.8906,30.2957],[-97.8969,30.2903],[-97.9007,30.2893],[-97.902,30.2923],[-97.8981,30.2954],[-97.8973,30.2979],[-97.903,30.3029],[-97.9071,30.3046],[-97.9068,30.3094],[-97.9088,30.3097],[-97.9086,30.3043],[-97.9106,30.2969],[-97.9135,30.2926],[-97.9177,30.2893],[-97.9167,30.2805],[-97.9147,30.2764],[-97.9163,30.2762],[-97.9108,30.2667],[-97.9089,30.2601],[-97.9131,30.2586],[-97.9234,30.2479],[-97.9274,30.2463],[-97.9203,30.2405],[-97.9183,30.2428],[-97.9199,30.2402],[-97.919,30.2394],[-97.9127,30.2498],[-97.9184,30.2526],[-97.9167,30.2543],[-97.9123,30.2521],[-97.9085,30.2549],[-97.9047,30.2549],[-97.909,30.2466],[-97.9039,30.2441],[-97.91,30.2347],[-97.9012,30.232],[-97.9007,30.2331],[-97.8995,30.2315],[-97.8949,30.2301],[-97.8936,30.2311],[-97.8937,30.2299],[-97.8914,30.2295],[-97.8937,30.2291],[-97.8956,30.2251],[-97.8918,30.2233],[-97.8969,30.2138],[-97.8937,30.212],[-97.8975,30.2059],[-97.9011,30.2071],[-97.9029,30.2093],[-97.9083,30.2097],[-97.912,30.2048],[-97.9184,30.2024],[-97.9287,30.1869],[-97.9294,30.1745],[-97.9284,30.1731],[-97.9243,30.1728],[-97.9179,30.1653],[-97.9186,30.1592],[-97.9176,30.1581],[-97.9219,30.1582],[-97.9218,30.1564],[-97.9291,30.1567],[-97.9289,30.1246],[-97.8884,30.1246],[-97.8862,30.1274],[-97.8873,30.1327],[-97.8949,30.1327],[-97.894,30.1342],[-97.9023,30.134],[-97.9024,30.1361],[-97.8958,30.1367],[-97.8982,30.1389],[-97.9008,30.1388],[-97.901,30.1421],[-97.893,30.1419],[-97.8932,30.1546],[-97.8985,30.1546],[-97.8989,30.1602],[-97.905,30.1598],[-97.9065,30.165],[-97.9071,30.1765],[-97.9053,30.1766],[-97.9045,30.1779],[-97.8965,30.179],[-97.8896,30.1728],[-97.8937,30.1727],[-97.8933,30.1626],[-97.8905,30.1625],[-97.8904,30.1481],[-97.8835,30.1482],[-97.8835,30.1515],[-97.8815,30.1539],[-97.8793,30.1521],[-97.874,30.1523],[-97.8703,30.1493],[-97.8646,30.1381],[-97.8627,30.1369],[-97.8621,30.1441],[-97.8567,30.1405],[-97.8546,30.1412],[-97.8502,30.1395],[-97.8467,30.1411],[-97.8496,30.1437],[-97.847,30.1446],[-97.847,30.1462],[-97.8501,30.1461],[-97.8485,30.1494],[-97.8426,30.1495],[-97.8426,30.1478],[-97.8448,30.1477],[-97.8452,30.1449],[-97.8422,30.1435],[-97.8379,30.1439],[-97.838,30.1496],[-97.8332,30.1498],[-97.8331,30.1475],[-97.8284,30.1476],[-97.8214,30.1701],[-97.8197,30.1718],[-97.8217,30.1622],[-97.8175,30.1617],[-97.8178,30.1499],[-97.8132,30.1479],[-97.8133,30.1447],[-97.8082,30.1445],[-97.8102,30.1396],[-97.8078,30.1391],[-97.8048,30.1437],[-97.8016,30.1428],[-97.8071,30.1328],[-97.7984,30.1356],[-97.8023,30.1258],[-97.8036,30.1254],[-97.8048,30.126],[-97.8014,30.1316],[-97.8013,30.1349],[-97.8079,30.1323],[-97.8105,30.1331],[-97.8125,30.1276],[-97.8115,30.116],[-97.825,30.1153],[-97.8238,30.1121],[-97.8203,30.1103],[-97.8114,30.1104],[-97.8114,30.1124],[-97.808,30.1124],[-97.8137,30.0995],[-97.8127,30.0984],[-97.806,30.1124],[-97.7852,30.1129],[-97.8059,30.1126],[-97.8011,30.1256],[-97.7961,30.1233],[-97.7942,30.1296],[-97.7917,30.1291],[-97.7949,30.124],[-97.7892,30.1215],[-97.7861,30.1264],[-97.7895,30.1273],[-97.7875,30.1306],[-97.7798,30.1279],[-97.7788,30.1294],[-97.7773,30.1281],[-97.7662,30.1312],[-97.7689,30.1298],[-97.7682,30.1283],[-97.7655,30.1274],[-97.7594,30.1371],[-97.7567,30.1344],[-97.7502,30.145],[-97.7486,30.1442],[-97.7473,30.1461],[-97.751,30.1478],[-97.7497,30.1499],[-97.7378,30.1442],[-97.7406,30.1397],[-97.737,30.1379],[-97.733,30.1441],[-97.7317,30.1443],[-97.7367,30.1458],[-97.7354,30.1479],[-97.7366,30.1485],[-97.7368,30.1515],[-97.7353,30.1546],[-97.7319,30.1522],[-97.7291,30.1422],[-97.732,30.1381],[-97.7308,30.1375],[-97.7318,30.1358],[-97.733,30.1364],[-97.7337,30.1354],[-97.7308,30.1326],[-97.7315,30.1315],[-97.7351,30.1332],[-97.733,30.1319],[-97.7351,30.1286],[-97.7162,30.1195],[-97.709,30.131],[-97.71,30.1315],[-97.7084,30.1319],[-97.7059,30.1357],[-97.696,30.131],[-97.6967,30.1442],[-97.6997,30.1456],[-97.6967,30.1511],[-97.7017,30.1552],[-97.704,30.1515],[-97.7105,30.1574],[-97.7112,30.1566],[-97.7106,30.1575],[-97.7191,30.1645],[-97.72,30.1631],[-97.724,30.1661],[-97.7211,30.18],[-97.7177,30.1844],[-97.7148,30.1816],[-97.7085,30.1813],[-97.7063,30.1815],[-97.703,30.1846],[-97.705,30.1862],[-97.7065,30.1848],[-97.7141,30.1889],[-97.7146,30.1901],[-97.7121,30.194],[-97.7104,30.1925],[-97.7101,30.1901],[-97.708,30.1901],[-97.707,30.1916],[-97.7052,30.1901],[-97.7009,30.194],[-97.6932,30.1871],[-97.6973,30.1804],[-97.6892,30.1779],[-97.6878,30.1827],[-97.6827,30.1785],[-97.6814,30.1717],[-97.6751,30.1718],[-97.675,30.1746],[-97.6616,30.1695],[-97.6633,30.1676],[-97.6665,30.1692],[-97.6732,30.1692],[-97.6748,30.1665],[-97.676,30.1668],[-97.6761,30.1637],[-97.6727,30.1624],[-97.6757,30.1561],[-97.6705,30.1529],[-97.6639,30.1614],[-97.6568,30.1589],[-97.6581,30.1569],[-97.6496,30.1536],[-97.6504,30.1525],[-97.643,30.149],[-97.6501,30.1392],[-97.6461,30.1374],[-97.649,30.1329],[-97.6402,30.1287],[-97.6409,30.127],[-97.6376,30.1245],[-97.6377,30.1227],[-97.6362,30.1233],[-97.6372,30.1224],[-97.6363,30.1216],[-97.634,30.1236],[-97.6329,30.1228],[-97.6339,30.1237],[-97.6326,30.1249],[-97.6367,30.1285],[-97.6349,30.1313],[-97.6259,30.1269],[-97.625,30.1284],[-97.6264,30.1291],[-97.6273,30.1278],[-97.6314,30.1298],[-97.6305,30.1312],[-97.6318,30.1319],[-97.6294,30.1329],[-97.6238,30.1302],[-97.6291,30.133],[-97.6276,30.1353],[-97.6269,30.1341],[-97.6237,30.1389],[-97.6215,30.1378],[-97.6227,30.1358],[-97.6208,30.1349],[-97.6182,30.1389],[-97.6243,30.1418],[-97.622,30.1455],[-97.616,30.1423],[-97.6133,30.1465],[-97.626,30.1535],[-97.6238,30.1569],[-97.6358,30.1627],[-97.6332,30.1667],[-97.6316,30.1679],[-97.6236,30.164],[-97.6266,30.1641],[-97.614,30.158],[-97.617,30.1536],[-97.6106,30.1506],[-97.6041,30.1605],[-97.6161,30.1661],[-97.615,30.1676],[-97.613,30.1667],[-97.6079,30.173],[-97.617,30.1774],[-97.6148,30.1787],[-97.62,30.1812],[-97.6188,30.1835],[-97.6213,30.1846],[-97.634,30.1763],[-97.6375,30.1779],[-97.6351,30.1818],[-97.642,30.1852],[-97.6359,30.1878],[-97.6329,30.1853],[-97.6317,30.1912],[-97.6264,30.1904],[-97.6246,30.1949],[-97.6184,30.1894],[-97.6166,30.1899],[-97.6125,30.1944],[-97.6127,30.1979],[-97.6097,30.2],[-97.6066,30.1984],[-97.6024,30.2004],[-97.6005,30.1996],[-97.6045,30.1934],[-97.601,30.1923],[-97.6034,30.1871],[-97.598,30.1878],[-97.587,30.2058],[-97.5922,30.2047],[-97.5978,30.2066],[-97.5999,30.2058],[-97.6043,30.2103],[-97.61,30.2101],[-97.6144,30.2132],[-97.6197,30.2105],[-97.6283,30.2087],[-97.6261,30.2109],[-97.6332,30.2085],[-97.6393,30.2093],[-97.6471,30.2125],[-97.6558,30.222],[-97.6574,30.2269],[-97.652,30.2332],[-97.6311,30.2395],[-97.6245,30.2502],[-97.6262,30.2565],[-97.6344,30.2567],[-97.6267,30.2687],[-97.632,30.2714],[-97.6278,30.2781],[-97.624,30.2762],[-97.6225,30.2786],[-97.6276,30.2809],[-97.6259,30.2837],[-97.6284,30.2849],[-97.6331,30.2775],[-97.636,30.2789],[-97.6343,30.2814],[-97.6402,30.2842],[-97.6344,30.2913],[-97.6261,30.2885],[-97.6234,30.2927],[-97.6197,30.291],[-97.6223,30.287],[-97.6092,30.2816],[-97.61,30.2803],[-97.6039,30.2772],[-97.6055,30.2745],[-97.6043,30.2739],[-97.6029,30.2762],[-97.6,30.2759],[-97.6047,30.2683],[-97.5988,30.2655],[-97.592,30.2763],[-97.5954,30.279],[-97.5948,30.28],[-97.5915,30.2771],[-97.5908,30.2781],[-97.596,30.2821],[-97.5934,30.2856],[-97.589,30.2885],[-97.579,30.2885],[-97.5723,30.2995],[-97.5758,30.3012],[-97.5657,30.3156],[-97.5634,30.3144],[-97.5604,30.3302],[-97.5656,30.3317],[-97.5692,30.3355],[-97.5768,30.3391],[-97.5752,30.3417],[-97.579,30.3417],[-97.5814,30.3461],[-97.5884,30.3511],[-97.5931,30.3439],[-97.5954,30.345],[-97.5934,30.3526],[-97.5978,30.3462],[-97.6023,30.3484],[-97.598,30.355],[-97.6062,30.3594],[-97.6073,30.357],[-97.6098,30.3582],[-97.6073,30.362],[-97.6093,30.3629],[-97.608,30.3649],[-97.6058,30.3644],[-97.6031,30.3685],[-97.5978,30.3659],[-97.5923,30.3743],[-97.6071,30.3818],[-97.6109,30.3758],[-97.6136,30.377],[-97.6144,30.3743],[-97.6178,30.3758],[-97.6285,30.3629],[-97.6235,30.3614],[-97.6253,30.3586],[-97.6308,30.3601],[-97.634,30.3572],[-97.639,30.3585],[-97.6373,30.3619],[-97.6349,30.3613],[-97.6311,30.3711],[-97.6278,30.3755],[-97.6261,30.3745],[-97.6219,30.3806],[-97.6196,30.3791],[-97.6156,30.3846],[-97.6162,30.3863],[-97.6119,30.3929],[-97.6141,30.394],[-97.6115,30.3978],[-97.6131,30.4028],[-97.6171,30.4047],[-97.6194,30.4012],[-97.6191,30.398],[-97.6209,30.3989],[-97.6236,30.3947],[-97.622,30.3939],[-97.6244,30.3902],[-97.6229,30.3895],[-97.6253,30.3858],[-97.6278,30.3881],[-97.6332,30.3794],[-97.6415,30.3837],[-97.64,30.3869],[-97.6414,30.3875],[-97.6427,30.3843],[-97.6469,30.3863],[-97.6459,30.3879],[-97.6429,30.3865],[-97.642,30.3878],[-97.6469,30.3901],[-97.6397,30.4015],[-97.637,30.4002],[-97.6365,30.4026],[-97.6351,30.402],[-97.6359,30.4007],[-97.6326,30.3965],[-97.6264,30.4047],[-97.6313,30.4069],[-97.6344,30.4031],[-97.638,30.4045],[-97.6334,30.4134],[-97.6429,30.418],[-97.6491,30.4099],[-97.6588,30.4184],[-97.6635,30.4207],[-97.6619,30.4208],[-97.6593,30.4274],[-97.6648,30.4282],[-97.665,30.4215],[-97.6687,30.4233],[-97.6624,30.4333],[-97.651,30.4277],[-97.6499,30.4295],[-97.6529,30.433],[-97.6506,30.4368],[-97.6647,30.4439],[-97.6615,30.4499],[-97.6654,30.458],[-97.6631,30.4593],[-97.6659,30.4617],[-97.6687,30.4696],[-97.6746,30.4704],[-97.6771,30.4666],[-97.6733,30.4647],[-97.6752,30.4614],[-97.6683,30.458],[-97.6699,30.4555],[-97.6666,30.4534],[-97.6681,30.4445],[-97.6699,30.4436],[-97.6686,30.4425],[-97.6711,30.4285],[-97.6727,30.4289],[-97.673,30.4276],[-97.6714,30.4269],[-97.6719,30.4246],[-97.6843,30.4306],[-97.6824,30.4336],[-97.6978,30.4402],[-97.6955,30.4492],[-97.6984,30.4505],[-97.6995,30.449],[-97.7018,30.4502],[-97.7003,30.4525],[-97.6954,30.4521],[-97.6944,30.4628],[-97.6986,30.4649],[-97.6906,30.4723],[-97.6931,30.4748],[-97.6941,30.4786],[-97.7062,30.4791],[-97.7155,30.5025],[-97.7159,30.5074],[-97.7231,30.4973],[-97.719,30.4872],[-97.722,30.4863],[-97.7191,30.479],[-97.7219,30.4781],[-97.7207,30.4749],[-97.7246,30.4738],[-97.7279,30.4815],[-97.7316,30.4804],[-97.7331,30.4839],[-97.7362,30.4826],[-97.7393,30.4833],[-97.7379,30.4835],[-97.7387,30.4847],[-97.7637,30.4792],[-97.7637,30.4819],[-97.7573,30.4839],[-97.7584,30.4874],[-97.7564,30.488],[-97.7554,30.485],[-97.7495,30.4862],[-97.754,30.496],[-97.7521,30.496],[-97.7505,30.4997],[-97.7448,30.5012],[-97.7464,30.5052],[-97.7441,30.5059],[-97.7485,30.5167],[-97.7547,30.5131],[-97.7577,30.509],[-97.7616,30.508],[-97.762,30.5063],[-97.7635,30.5069],[-97.7629,30.5076],[-97.7662,30.5073],[-97.7765,30.5033],[-97.7829,30.5036],[-97.7897,30.5058],[-97.795,30.5034],[-97.7998,30.4978],[-97.8063,30.4949],[-97.8052,30.4905],[-97.8075,30.4876],[-97.8032,30.4797],[-97.8153,30.4753],[-97.8106,30.4639],[-97.8201,30.461],[-97.8263,30.4557],[-97.8341,30.4577],[-97.8388,30.4607],[-97.8441,30.4587],[-97.8476,30.4535],[-97.8503,30.4518],[-97.8484,30.4509],[-97.8456,30.4537],[-97.843,30.4518],[-97.8436,30.4505],[-97.8377,30.4481],[-97.8367,30.4461],[-97.8464,30.4505],[-97.8495,30.4485],[-97.8522,30.4512],[-97.8558,30.4498],[-97.8697,30.44],[-97.8719,30.441],[-97.8737,30.4399],[-97.8768,30.4347],[-97.8788,30.4343],[-97.878,30.4335],[-97.8802,30.4311],[-97.8761,30.4303],[-97.875,30.4315],[-97.8739,30.4262],[-97.8786,30.428],[-97.8838,30.4222],[-97.8885,30.4251],[-97.8915,30.4232],[-97.8944,30.4247],[-97.9012,30.4193],[-97.9028,30.4161],[-97.9027,30.4047],[-97.8984,30.4039],[-97.8984,30.4076],[-97.8961,30.4061],[-97.8944,30.4065],[-97.8942,30.4082],[-97.8958,30.4097],[-97.8906,30.4103],[-97.8883,30.409],[-97.8877,30.4114],[-97.8845,30.4122],[-97.8818,30.4116],[-97.882,30.4104],[-97.8797,30.4094],[-97.8787,30.4053],[-97.88,30.4021],[-97.8837,30.3989],[-97.8884,30.397],[-97.9078,30.3933],[-97.9086,30.3946],[-97.913,30.3922],[-97.9165,30.3871],[-97.9169,30.3781],[-97.9184,30.3768],[-97.9169,30.3749],[-97.9158,30.3644],[-97.9175,30.3626],[-97.916,30.3599],[-97.918,30.3561],[-97.9211,30.3578],[-97.9228,30.3575],[-97.9228,30.3548],[-97.9201,30.3536],[-97.9384,30.3367]],[[-97.7057,30.1367],[-97.7056,30.1369],[-97.7054,30.1368],[-97.7057,30.1367]],[[-97.8242,30.1134],[-97.8239,30.1133],[-97.824,30.113],[-97.8242,30.1134]],[[-97.7304,30.1524],[-97.7304,30.1527],[-97.7301,30.1527],[-97.7304,30.1524]],[[-97.8654,30.3515],[-97.8651,30.3517],[-97.865,30.3514],[-97.8654,30.3515]],[[-97.7801,30.3109],[-97.7796,30.3109],[-97.7798,30.3106],[-97.7801,30.3109]],[[-97.7921,30.3426],[-97.7918,30.3429],[-97.7916,30.3428],[-97.7921,30.3426]],[[-97.8227,30.331],[-97.8225,30.3312],[-97.8221,30.331],[-97.8227,30.331]],[[-97.8226,30.3346],[-97.822,30.3344],[-97.8222,30.3342],[-97.8226,30.3346]],[[-97.8223,30.3315],[-97.8221,30.3317],[-97.8217,30.3314],[-97.8223,30.3315]],[[-97.9301,30.3285],[-97.9296,30.3293],[-97.9295,30.3291],[-97.9301,30.3285]],[[-97.9157,30.371],[-97.9148,30.3712],[-97.9157,30.3708],[-97.9157,30.371]],[[-97.8231,30.3343],[-97.8224,30.334],[-97.8225,30.3338],[-97.8231,30.3343]],[[-97.7235,30.1564],[-97.7229,30.1567],[-97.7231,30.1562],[-97.7235,30.1564]],[[-97.8178,30.34],[-97.817,30.34],[-97.8172,30.3398],[-97.8178,30.34]],[[-97.8372,30.327],[-97.8365,30.3274],[-97.8369,30.3269],[-97.8372,30.327]],[[-97.7832,30.3932],[-97.7822,30.3932],[-97.7825,30.3929],[-97.7832,30.3932]],[[-97.8078,30.3527],[-97.8065,30.3533],[-97.8067,30.353],[-97.8078,30.3527]],[[-97.8152,30.3393],[-97.8142,30.3391],[-97.8144,30.3389],[-97.8152,30.3393]],[[-97.7798,30.3115],[-97.7787,30.3112],[-97.7787,30.3109],[-97.7798,30.3115]],[[-97.8159,30.3386],[-97.8156,30.3389],[-97.8149,30.3386],[-97.8159,30.3386]],[[-97.9307,30.329],[-97.93,30.3295],[-97.9304,30.3288],[-97.9307,30.329]],[[-97.8559,30.3527],[-97.8551,30.3534],[-97.8555,30.3526],[-97.8559,30.3527]],[[-97.7849,30.3351],[-97.7843,30.3354],[-97.7841,30.335],[-97.7849,30.3351]],[[-97.8838,30.3427],[-97.8831,30.3418],[-97.8834,30.3417],[-97.8838,30.3427]],[[-97.9157,30.3687],[-97.9149,30.3693],[-97.9149,30.3689],[-97.9157,30.3687]],[[-97.8483,30.3377],[-97.8481,30.3382],[-97.8476,30.3372],[-97.8483,30.3377]],[[-97.8285,30.3287],[-97.8283,30.3289],[-97.8273,30.3282],[-97.8285,30.3287]],[[-97.8815,30.3424],[-97.8809,30.3426],[-97.8809,30.342],[-97.8815,30.3424]],[[-97.8626,30.3531],[-97.862,30.3534],[-97.8618,30.3528],[-97.8626,30.3531]],[[-97.7898,30.2985],[-97.789,30.2987],[-97.7888,30.2984],[-97.7898,30.2985]],[[-97.8826,30.3428],[-97.8817,30.3423],[-97.8823,30.3421],[-97.8826,30.3428]],[[-97.8262,30.331],[-97.8251,30.3305],[-97.8253,30.3302],[-97.8262,30.331]],[[-97.8638,30.3525],[-97.8632,30.3528],[-97.8629,30.3523],[-97.8638,30.3525]],[[-97.8281,30.3292],[-97.828,30.3295],[-97.8269,30.3286],[-97.8281,30.3292]],[[-97.8156,30.3436],[-97.8155,30.3439],[-97.8142,30.3433],[-97.8156,30.3436]],[[-97.8148,30.3397],[-97.8138,30.3398],[-97.8141,30.3393],[-97.8148,30.3397]],[[-97.901,30.2345],[-97.9003,30.2351],[-97.9005,30.2343],[-97.901,30.2345]],[[-97.8208,30.3332],[-97.8203,30.3337],[-97.8198,30.3333],[-97.8208,30.3332]],[[-97.7913,30.3431],[-97.7907,30.3443],[-97.7907,30.3432],[-97.7913,30.3431]],[[-97.7858,30.3353],[-97.785,30.3366],[-97.7857,30.335],[-97.7858,30.3353]],[[-97.8184,30.3358],[-97.8182,30.3361],[-97.8172,30.3351],[-97.8184,30.3358]],[[-97.848,30.3437],[-97.8467,30.3435],[-97.848,30.3432],[-97.848,30.3437]],[[-97.7843,30.3343],[-97.7838,30.3346],[-97.7833,30.3337],[-97.7843,30.3343]],[[-97.8202,30.3339],[-97.82,30.3341],[-97.8185,30.3332],[-97.8202,30.3339]],[[-97.6189,30.3868],[-97.6185,30.3874],[-97.6179,30.3872],[-97.6189,30.3868]],[[-97.8594,30.3541],[-97.8588,30.3541],[-97.8587,30.3533],[-97.8594,30.3541]],[[-97.6998,30.1483],[-97.6988,30.1485],[-97.6992,30.1479],[-97.6998,30.1483]],[[-97.7798,30.325],[-97.7788,30.3254],[-97.7785,30.3249],[-97.7798,30.325]],[[-97.7931,30.341],[-97.7925,30.3421],[-97.7919,30.3416],[-97.7931,30.341]],[[-97.8608,30.3538],[-97.86,30.354],[-97.8599,30.3532],[-97.8608,30.3538]],[[-97.7864,30.3363],[-97.7855,30.3376],[-97.7861,30.336],[-97.7864,30.3363]],[[-97.8215,30.3366],[-97.8202,30.3366],[-97.8207,30.3361],[-97.8215,30.3366]],[[-97.9188,30.3541],[-97.9184,30.3547],[-97.9176,30.354],[-97.9188,30.3541]],[[-97.834,30.3258],[-97.833,30.3249],[-97.8336,30.3248],[-97.834,30.3258]],[[-97.8499,30.3413],[-97.8494,30.342],[-97.8489,30.341],[-97.8499,30.3413]],[[-97.8236,30.33],[-97.8221,30.3301],[-97.8229,30.3296],[-97.8236,30.33]],[[-97.9137,30.3817],[-97.9125,30.3815],[-97.9136,30.3807],[-97.9137,30.3817]],[[-97.8333,30.3259],[-97.8316,30.3254],[-97.8327,30.325],[-97.8333,30.3259]],[[-97.751,30.1602],[-97.7494,30.1601],[-97.7498,30.1596],[-97.751,30.1602]],[[-97.8746,30.3488],[-97.874,30.3493],[-97.8743,30.3475],[-97.8746,30.3488]],[[-97.7818,30.4187],[-97.7808,30.4195],[-97.781,30.4185],[-97.7818,30.4187]],[[-97.8472,30.3375],[-97.8459,30.3383],[-97.8458,30.3375],[-97.8472,30.3375]],[[-97.7798,30.3169],[-97.7798,30.3174],[-97.7774,30.3158],[-97.7798,30.3169]],[[-97.8378,30.3244],[-97.8367,30.3255],[-97.8368,30.3243],[-97.8378,30.3244]],[[-97.7173,30.1363],[-97.7158,30.1367],[-97.7163,30.1359],[-97.7173,30.1363]],[[-97.7816,30.3215],[-97.7802,30.3226],[-97.7806,30.3213],[-97.7816,30.3215]],[[-97.7149,30.129],[-97.7138,30.1307],[-97.7133,30.1305],[-97.7149,30.129]],[[-97.9229,30.3263],[-97.9223,30.3289],[-97.9225,30.3263],[-97.9229,30.3263]],[[-97.8218,30.3321],[-97.821,30.333],[-97.8199,30.3324],[-97.8218,30.3321]],[[-97.8295,30.2845],[-97.829,30.285],[-97.8276,30.2842],[-97.8295,30.2845]],[[-97.912,30.2588],[-97.9112,30.2592],[-97.9103,30.2577],[-97.912,30.2588]],[[-97.7794,30.3236],[-97.7782,30.3236],[-97.7778,30.3223],[-97.7794,30.3236]],[[-97.8212,30.3414],[-97.82,30.3416],[-97.82,30.3405],[-97.821,30.3402],[-97.8212,30.3414]],[[-97.7816,30.3275],[-97.7805,30.3289],[-97.7799,30.328],[-97.7816,30.3275]],[[-97.7779,30.1772],[-97.7763,30.1785],[-97.7766,30.1774],[-97.7779,30.1772]],[[-97.7843,30.3062],[-97.7827,30.3056],[-97.7835,30.3046],[-97.7843,30.3062]],[[-97.8481,30.3371],[-97.8458,30.337],[-97.8457,30.3364],[-97.8481,30.3371]],[[-97.9222,30.3263],[-97.922,30.3289],[-97.9213,30.3289],[-97.9222,30.3263]],[[-97.6665,30.4489],[-97.6662,30.4505],[-97.665,30.45],[-97.6665,30.4489]],[[-97.7908,30.3418],[-97.7902,30.3439],[-97.7887,30.3425],[-97.7908,30.3418]],[[-97.7161,30.1358],[-97.714,30.1365],[-97.7149,30.1352],[-97.7161,30.1358]],[[-97.8052,30.3726],[-97.8043,30.3738],[-97.8038,30.3717],[-97.8052,30.3726]],[[-97.785,30.3995],[-97.7837,30.4002],[-97.7831,30.3985],[-97.785,30.3995]],[[-97.7832,30.3066],[-97.7819,30.3071],[-97.7809,30.3054],[-97.7832,30.3066]],[[-97.8173,30.2647],[-97.8165,30.2661],[-97.8155,30.2657],[-97.8168,30.2639],[-97.8173,30.2647]],[[-97.7886,30.3392],[-97.7869,30.3402],[-97.7864,30.3391],[-97.7883,30.3383],[-97.7886,30.3392]],[[-97.8537,30.3825],[-97.8523,30.3847],[-97.8519,30.3825],[-97.8537,30.3825]],[[-97.7914,30.2995],[-97.7902,30.3007],[-97.7885,30.2999],[-97.7914,30.2995]],[[-97.8175,30.3359],[-97.8165,30.338],[-97.8146,30.3385],[-97.8175,30.3359]],[[-97.8194,30.3348],[-97.8188,30.3355],[-97.8169,30.3343],[-97.8179,30.3335],[-97.8194,30.3348]],[[-97.9211,30.2454],[-97.9199,30.2465],[-97.919,30.2456],[-97.9201,30.2442],[-97.9211,30.2454]],[[-97.8442,30.3258],[-97.8423,30.3238],[-97.8441,30.3244],[-97.8442,30.3258]],[[-97.7834,30.3914],[-97.7827,30.3927],[-97.7811,30.3919],[-97.7819,30.3907],[-97.7834,30.3914]],[[-97.8365,30.3254],[-97.8343,30.3257],[-97.8339,30.3247],[-97.8365,30.3243],[-97.8365,30.3254]],[[-97.7793,30.3217],[-97.7776,30.3214],[-97.7774,30.3195],[-97.7793,30.3217]],[[-97.8073,30.373],[-97.8058,30.3751],[-97.8052,30.3727],[-97.8073,30.373]],[[-97.8209,30.3383],[-97.8185,30.3399],[-97.8177,30.3391],[-97.819,30.3378],[-97.8209,30.3383]],[[-97.8499,30.3401],[-97.8462,30.3403],[-97.846,30.3394],[-97.8499,30.3401]],[[-97.7907,30.3405],[-97.7884,30.3421],[-97.7893,30.3401],[-97.7876,30.3411],[-97.7889,30.3396],[-97.787,30.3404],[-97.7893,30.3389],[-97.7894,30.3403],[-97.7907,30.3405]],[[-97.7995,30.1295],[-97.799,30.1309],[-97.7968,30.1303],[-97.7974,30.1287],[-97.7995,30.1295]],[[-97.8316,30.4401],[-97.8308,30.4414],[-97.8297,30.4408],[-97.8301,30.4379],[-97.8316,30.4401]],[[-97.8181,30.2672],[-97.818,30.2686],[-97.8147,30.2669],[-97.8171,30.2673],[-97.818,30.266],[-97.8181,30.2672]],[[-97.622,30.3891],[-97.6204,30.3916],[-97.6192,30.391],[-97.6203,30.3883],[-97.622,30.3891]],[[-97.7218,30.1385],[-97.7213,30.1393],[-97.7181,30.138],[-97.7187,30.137],[-97.7218,30.1385]],[[-97.7524,30.1578],[-97.7517,30.1589],[-97.7486,30.1573],[-97.7492,30.1562],[-97.7524,30.1578]],[[-97.6657,30.4534],[-97.665,30.4557],[-97.6628,30.452],[-97.6657,30.4534]],[[-97.9207,30.3264],[-97.9192,30.3298],[-97.9176,30.3286],[-97.9207,30.3264]],[[-97.8561,30.3513],[-97.8544,30.3522],[-97.852,30.3507],[-97.8533,30.3497],[-97.8561,30.3513]],[[-97.8036,30.3646],[-97.8013,30.3682],[-97.8002,30.3673],[-97.8028,30.364],[-97.8036,30.3646]],[[-97.7417,30.4587],[-97.7394,30.4595],[-97.7386,30.4576],[-97.7409,30.4569],[-97.7417,30.4587]],[[-97.7793,30.3905],[-97.7785,30.3914],[-97.7748,30.3903],[-97.7777,30.3894],[-97.7793,30.3905]],[[-97.8303,30.3629],[-97.8295,30.3652],[-97.8218,30.3641],[-97.8287,30.3645],[-97.8303,30.3629]],[[-97.7784,30.1441],[-97.7759,30.1446],[-97.776,30.1412],[-97.7784,30.1441]],[[-97.9211,30.2499],[-97.9203,30.2506],[-97.9169,30.2488],[-97.918,30.2472],[-97.9211,30.2499]],[[-97.8163,30.2395],[-97.8133,30.2406],[-97.8126,30.2386],[-97.8148,30.2376],[-97.8163,30.2395]],[[-97.8166,30.2637],[-97.8143,30.2648],[-97.8154,30.2655],[-97.8147,30.2668],[-97.8125,30.2658],[-97.8144,30.2632],[-97.8166,30.2637]],[[-97.785,30.426],[-97.783,30.4283],[-97.7794,30.4262],[-97.7826,30.4273],[-97.7823,30.4261],[-97.7844,30.4251],[-97.785,30.426]],[[-97.8892,30.4195],[-97.8875,30.4221],[-97.8843,30.4209],[-97.8866,30.4191],[-97.8892,30.4195]],[[-97.8056,30.2717],[-97.8024,30.2734],[-97.8017,30.2725],[-97.804,30.2693],[-97.8056,30.2717]],[[-97.6764,30.4668],[-97.6756,30.4684],[-97.6736,30.4676],[-97.6713,30.4694],[-97.6743,30.4654],[-97.6764,30.4668]],[[-97.8096,30.4201],[-97.8077,30.4218],[-97.8061,30.4204],[-97.8064,30.4188],[-97.8095,30.419],[-97.8096,30.4201]],[[-97.7847,30.1657],[-97.7822,30.1667],[-97.782,30.163],[-97.7843,30.1623],[-97.7831,30.1642],[-97.7847,30.1657]],[[-97.7812,30.3931],[-97.7773,30.396],[-97.7782,30.3926],[-97.7806,30.3928],[-97.7788,30.3914],[-97.7812,30.3931]],[[-97.8348,30.3698],[-97.8328,30.3717],[-97.8309,30.3708],[-97.8311,30.368],[-97.8348,30.3698]],[[-97.9299,30.3311],[-97.9277,30.3343],[-97.9256,30.334],[-97.9282,30.33],[-97.9299,30.3311]],[[-97.8279,30.2836],[-97.8264,30.2831],[-97.8253,30.2794],[-97.8268,30.2771],[-97.8279,30.2836]],[[-97.672,30.4663],[-97.6707,30.4682],[-97.6687,30.4625],[-97.6713,30.4638],[-97.672,30.4663]],[[-97.8251,30.3406],[-97.8242,30.3419],[-97.822,30.3402],[-97.8226,30.339],[-97.8208,30.3388],[-97.8216,30.3376],[-97.8238,30.3378],[-97.8251,30.3406]],[[-97.8411,30.4537],[-97.8375,30.4573],[-97.839,30.4585],[-97.8377,30.4599],[-97.8359,30.4588],[-97.8384,30.4549],[-97.8403,30.4532],[-97.8411,30.4537]],[[-97.7359,30.158],[-97.7282,30.1544],[-97.7288,30.1534],[-97.7358,30.1567],[-97.7359,30.158]],[[-97.7247,30.1532],[-97.7229,30.1562],[-97.7197,30.1546],[-97.7223,30.1521],[-97.7247,30.1532]],[[-97.833,30.1498],[-97.8322,30.1533],[-97.8294,30.1534],[-97.8293,30.1505],[-97.833,30.1498]],[[-97.7814,30.3979],[-97.7794,30.4009],[-97.7762,30.3995],[-97.7756,30.3973],[-97.7766,30.3958],[-97.7782,30.3978],[-97.7814,30.3979]],[[-97.7745,30.1754],[-97.7732,30.1756],[-97.7732,30.1782],[-97.7698,30.1787],[-97.7691,30.1743],[-97.7745,30.1754]],[[-97.7123,30.445],[-97.7087,30.4506],[-97.7107,30.4449],[-97.7021,30.4409],[-97.7042,30.4417],[-97.7055,30.4396],[-97.7078,30.4409],[-97.7067,30.4427],[-97.7123,30.445]],[[-97.7925,30.4092],[-97.7923,30.4102],[-97.7902,30.4093],[-97.7908,30.4084],[-97.7821,30.4043],[-97.783,30.403],[-97.7883,30.4049],[-97.7925,30.4092]],[[-97.8106,30.3421],[-97.8066,30.3482],[-97.8025,30.3483],[-97.8048,30.3444],[-97.8073,30.3454],[-97.8106,30.3421]],[[-97.8363,30.4496],[-97.833,30.4515],[-97.8302,30.4501],[-97.8319,30.4465],[-97.8355,30.4479],[-97.8348,30.4488],[-97.8363,30.4496]],[[-97.8344,30.3298],[-97.8291,30.3315],[-97.8261,30.3294],[-97.8289,30.3305],[-97.831,30.3283],[-97.8299,30.3263],[-97.831,30.3256],[-97.8335,30.3271],[-97.8328,30.3278],[-97.8344,30.3298]],[[-97.8683,30.3673],[-97.8664,30.3672],[-97.8672,30.3664],[-97.8628,30.3607],[-97.8658,30.3576],[-97.8669,30.3595],[-97.8668,30.3647],[-97.8683,30.3673]],[[-97.6278,30.3629],[-97.6212,30.365],[-97.618,30.3625],[-97.6202,30.3595],[-97.6227,30.3588],[-97.6244,30.3599],[-97.6234,30.3615],[-97.6278,30.3629]],[[-97.6524,30.3239],[-97.6496,30.3237],[-97.65,30.3279],[-97.6483,30.3273],[-97.648,30.3286],[-97.6437,30.329],[-97.6442,30.3243],[-97.6523,30.3223],[-97.6524,30.3239]],[[-97.8381,30.4535],[-97.8363,30.4565],[-97.8345,30.4561],[-97.8339,30.4575],[-97.8289,30.4562],[-97.8299,30.4545],[-97.8285,30.453],[-97.8297,30.451],[-97.8324,30.4523],[-97.8311,30.4543],[-97.8335,30.4554],[-97.8361,30.451],[-97.8381,30.4535]],[[-97.8324,30.4446],[-97.8294,30.4508],[-97.8232,30.4476],[-97.8267,30.4422],[-97.8324,30.4446]],[[-97.6113,30.3415],[-97.6059,30.3501],[-97.6023,30.3483],[-97.6068,30.3413],[-97.6039,30.3399],[-97.6049,30.3383],[-97.6113,30.3415]],[[-97.6516,30.1984],[-97.6456,30.2037],[-97.6408,30.1996],[-97.6467,30.1943],[-97.6516,30.1984]],[[-97.7393,30.4495],[-97.7302,30.4521],[-97.727,30.4463],[-97.735,30.444],[-97.7348,30.4473],[-97.7383,30.4463],[-97.7393,30.4495]],[[-97.8706,30.3724],[-97.8681,30.3741],[-97.8665,30.3784],[-97.8628,30.3831],[-97.8598,30.3813],[-97.8608,30.3768],[-97.8598,30.376],[-97.8666,30.3721],[-97.8706,30.3724]],[[-97.8356,30.1697],[-97.8293,30.1698],[-97.8273,30.1704],[-97.8272,30.1722],[-97.8242,30.1723],[-97.8275,30.1662],[-97.832,30.162],[-97.8342,30.1625],[-97.834,30.1658],[-97.8356,30.1675],[-97.8356,30.1697]],[[-97.8225,30.3275],[-97.8223,30.3289],[-97.8153,30.3353],[-97.8112,30.3333],[-97.8111,30.3313],[-97.8159,30.324],[-97.8225,30.3275]],[[-97.592,30.309],[-97.5865,30.3176],[-97.582,30.3137],[-97.5816,30.3074],[-97.5832,30.3048],[-97.592,30.309]],[[-97.6705,30.3248],[-97.6683,30.3265],[-97.66,30.3278],[-97.6607,30.3264],[-97.6572,30.3251],[-97.6627,30.3171],[-97.6705,30.3248]],[[-97.6427,30.1495],[-97.6374,30.1578],[-97.6305,30.1545],[-97.6332,30.1508],[-97.624,30.1464],[-97.6277,30.1424],[-97.6427,30.1495]],[[-97.8478,30.3606],[-97.8459,30.3643],[-97.8344,30.3588],[-97.831,30.3585],[-97.8303,30.3603],[-97.8175,30.3544],[-97.8142,30.3599],[-97.811,30.3593],[-97.8121,30.3569],[-97.8081,30.3536],[-97.81,30.3511],[-97.815,30.3511],[-97.8115,30.3505],[-97.8139,30.3456],[-97.828,30.3532],[-97.8266,30.3555],[-97.832,30.3581],[-97.8351,30.3569],[-97.8362,30.3575],[-97.8354,30.3586],[-97.8391,30.3604],[-97.841,30.3575],[-97.8478,30.3606]],[[-97.8175,30.4097],[-97.8125,30.4158],[-97.8074,30.4162],[-97.8049,30.4201],[-97.7938,30.4208],[-97.7952,30.4197],[-97.7941,30.4192],[-97.7956,30.4156],[-97.7928,30.4123],[-97.7935,30.4072],[-97.7988,30.3988],[-97.8007,30.3997],[-97.8013,30.3989],[-97.8124,30.4041],[-97.8108,30.4065],[-97.8175,30.4097]],[[-97.83,30.2223],[-97.8203,30.2342],[-97.8167,30.2337],[-97.8164,30.2355],[-97.8138,30.2372],[-97.8125,30.2365],[-97.8102,30.2399],[-97.8072,30.24],[-97.811,30.2342],[-97.8029,30.2325],[-97.8064,30.2268],[-97.8039,30.2256],[-97.8063,30.2218],[-97.8085,30.2219],[-97.8177,30.2141],[-97.8203,30.2147],[-97.8216,30.217],[-97.8254,30.2167],[-97.8278,30.2179],[-97.8262,30.2204],[-97.83,30.2223]],[[-97.6593,30.1674],[-97.6501,30.1748],[-97.6459,30.1823],[-97.6462,30.1856],[-97.6378,30.1822],[-97.6372,30.1813],[-97.6396,30.1773],[-97.6294,30.1724],[-97.6346,30.1676],[-97.6381,30.1616],[-97.6417,30.1635],[-97.6448,30.1634],[-97.6423,30.1609],[-97.6437,30.1587],[-97.6523,30.1619],[-97.6518,30.1626],[-97.6593,30.1674]],[[-97.7827,30.1573],[-97.7738,30.159],[-97.7769,30.164],[-97.7752,30.1651],[-97.7771,30.1664],[-97.7784,30.1654],[-97.7802,30.1672],[-97.7798,30.1714],[-97.7819,30.1715],[-97.7795,30.1749],[-97.7778,30.1713],[-97.7683,30.1711],[-97.7639,30.1682],[-97.7638,30.164],[-97.7607,30.1641],[-97.7645,30.1575],[-97.7619,30.1566],[-97.7674,30.148],[-97.7664,30.1461],[-97.7636,30.1503],[-97.7613,30.1492],[-97.7646,30.1434],[-97.7663,30.1427],[-97.7676,30.1444],[-97.7725,30.1433],[-97.7767,30.1506],[-97.7799,30.1516],[-97.7804,30.155],[-97.7827,30.1573]],[[-97.8734,30.4293],[-97.8693,30.4354],[-97.8713,30.437],[-97.8697,30.4385],[-97.8679,30.4368],[-97.8637,30.4407],[-97.8655,30.4424],[-97.8542,30.4502],[-97.8518,30.4475],[-97.8492,30.448],[-97.8447,30.441],[-97.8403,30.4434],[-97.8385,30.442],[-97.8371,30.4438],[-97.8336,30.443],[-97.8374,30.4384],[-97.8413,30.44],[-97.8446,30.4324],[-97.8481,30.4367],[-97.8514,30.4352],[-97.8563,30.4374],[-97.8633,30.4342],[-97.8597,30.4282],[-97.8614,30.4282],[-97.8687,30.4171],[-97.8693,30.4205],[-97.8724,30.425],[-97.8708,30.428],[-97.8734,30.4293]],[[-97.9071,30.3908],[-97.9038,30.3926],[-97.8884,30.3951],[-97.8805,30.3996],[-97.879,30.3981],[-97.8805,30.3996],[-97.8774,30.4045],[-97.8785,30.4099],[-97.8799,30.411],[-97.8786,30.4128],[-97.8758,30.4111],[-97.8748,30.4085],[-97.874,30.4125],[-97.8787,30.4132],[-97.876,30.4174],[-97.8775,30.4181],[-97.8728,30.4255],[-97.8669,30.4137],[-97.8624,30.4086],[-97.8547,30.4043],[-97.8587,30.397],[-97.8765,30.3928],[-97.8768,30.3936],[-97.8822,30.3932],[-97.8819,30.3959],[-97.8829,30.3965],[-97.8932,30.3922],[-97.8962,30.393],[-97.8999,30.3921],[-97.9027,30.3898],[-97.9071,30.3908]],[[-97.8745,30.1729],[-97.8703,30.173],[-97.8685,30.1758],[-97.8702,30.1761],[-97.8688,30.176],[-97.8681,30.1778],[-97.8617,30.1774],[-97.8616,30.1759],[-97.8615,30.1774],[-97.8565,30.1787],[-97.8532,30.1782],[-97.8564,30.1732],[-97.8504,30.1733],[-97.8502,30.159],[-97.86,30.1588],[-97.8591,30.1557],[-97.8621,30.1547],[-97.8621,30.1501],[-97.8594,30.149],[-97.86,30.1457],[-97.862,30.1463],[-97.8622,30.1455],[-97.8675,30.1491],[-97.8668,30.1503],[-97.8655,30.1492],[-97.8617,30.1495],[-97.8654,30.1494],[-97.8671,30.1523],[-97.8743,30.1535],[-97.8745,30.1729]],[[-97.7897,30.4571],[-97.7886,30.4586],[-97.7821,30.4606],[-97.7842,30.4658],[-97.7807,30.4699],[-97.7805,30.4725],[-97.7639,30.4753],[-97.76,30.4664],[-97.7541,30.4607],[-97.7549,30.4605],[-97.7521,30.4538],[-97.7453,30.448],[-97.7428,30.4438],[-97.7481,30.4418],[-97.7498,30.4456],[-97.7587,30.4425],[-97.7582,30.4413],[-97.7621,30.4412],[-97.7642,30.4464],[-97.7613,30.4486],[-97.7648,30.4569],[-97.7625,30.4576],[-97.7621,30.46],[-97.7641,30.4607],[-97.7667,30.4673],[-97.7739,30.4651],[-97.7731,30.4634],[-97.7765,30.462],[-97.7747,30.4537],[-97.783,30.4511],[-97.7877,30.4531],[-97.7897,30.4571]],[[-97.6435,30.3075],[-97.6414,30.3104],[-97.6373,30.312],[-97.6307,30.3079],[-97.6282,30.316],[-97.633,30.3183],[-97.6299,30.323],[-97.6353,30.3272],[-97.6409,30.3254],[-97.6429,30.3264],[-97.6411,30.3292],[-97.6215,30.3309],[-97.6047,30.3353],[-97.6007,30.3348],[-97.6193,30.3047],[-97.6295,30.31],[-97.6299,30.3081],[-97.6297,30.3092],[-97.6326,30.3062],[-97.6435,30.3075]],[[-97.6713,30.3459],[-97.6701,30.348],[-97.6683,30.3481],[-97.6712,30.3495],[-97.6692,30.3515],[-97.6711,30.3524],[-97.6687,30.3552],[-97.6573,30.3509],[-97.6565,30.3521],[-97.6548,30.3512],[-97.6532,30.353],[-97.6534,30.3552],[-97.6476,30.3523],[-97.6482,30.3562],[-97.6416,30.3535],[-97.6403,30.356],[-97.6377,30.3561],[-97.6338,30.3544],[-97.6348,30.3535],[-97.6365,30.355],[-97.6391,30.3528],[-97.6307,30.3503],[-97.628,30.3543],[-97.6272,30.354],[-97.63,30.3498],[-97.6166,30.3435],[-97.6242,30.3318],[-97.6263,30.3316],[-97.6255,30.3329],[-97.6274,30.3338],[-97.629,30.3315],[-97.6546,30.3297],[-97.6569,30.3328],[-97.6537,30.3375],[-97.6713,30.3459]],[[-97.6814,30.241],[-97.6802,30.242],[-97.6802,30.2474],[-97.6749,30.2499],[-97.6721,30.2525],[-97.6717,30.2546],[-97.6611,30.2623],[-97.6601,30.2613],[-97.6589,30.2627],[-97.644,30.2633],[-97.6424,30.2629],[-97.6412,30.256],[-97.6263,30.2549],[-97.6267,30.2493],[-97.6328,30.2409],[-97.6528,30.2346],[-97.6617,30.2253],[-97.6643,30.2284],[-97.6674,30.227],[-97.6709,30.23],[-97.6693,30.2315],[-97.6724,30.2341],[-97.6734,30.2333],[-97.6763,30.2357],[-97.678,30.2341],[-97.6764,30.2368],[-97.6814,30.241]],[[-97.9273,30.3404],[-97.9141,30.3534],[-97.9108,30.3604],[-97.9113,30.3726],[-97.9136,30.3725],[-97.9106,30.3738],[-97.9117,30.3758],[-97.9136,30.3751],[-97.9117,30.3761],[-97.912,30.3815],[-97.9078,30.3819],[-97.9036,30.3797],[-97.9004,30.3853],[-97.8994,30.3837],[-97.8903,30.3881],[-97.8909,30.3892],[-97.8946,30.3885],[-97.8949,30.3903],[-97.8966,30.3911],[-97.896,30.3921],[-97.8909,30.3892],[-97.8863,30.3933],[-97.8848,30.3904],[-97.8823,30.3898],[-97.8823,30.388],[-97.8764,30.3911],[-97.8631,30.3943],[-97.884,30.3623],[-97.8794,30.3601],[-97.8892,30.3465],[-97.8971,30.3434],[-97.8983,30.3452],[-97.9,30.345],[-97.9019,30.3433],[-97.9009,30.3417],[-97.9085,30.3359],[-97.9108,30.3372],[-97.9136,30.3366],[-97.9246,30.3389],[-97.9273,30.3404]]],[[[-97.5696,30.2798],[-97.5587,30.2748],[-97.56,30.2726],[-97.5588,30.2725],[-97.5593,30.2711],[-97.5524,30.2658],[-97.5536,30.2633],[-97.5518,30.2621],[-97.5416,30.2787],[-97.5289,30.2727],[-97.528,30.2742],[-97.531,30.2756],[-97.5276,30.2813],[-97.537,30.2859],[-97.5375,30.2851],[-97.542,30.2874],[-97.5432,30.2858],[-97.5489,30.2886],[-97.5442,30.2958],[-97.5647,30.3045],[-97.5677,30.2982],[-97.5655,30.2942],[-97.5684,30.2897],[-97.5644,30.2878],[-97.5696,30.2798]],[[-97.5398,30.2823],[-97.5393,30.2824],[-97.5394,30.2821],[-97.5398,30.2823]]],[[[-97.5996,30.1579],[-97.5928,30.1546],[-97.5989,30.145],[-97.5933,30.1423],[-97.587,30.1522],[-97.5675,30.1409],[-97.5574,30.1569],[-97.5717,30.1635],[-97.5708,30.1661],[-97.5778,30.1633],[-97.5772,30.1642],[-97.5789,30.1654],[-97.584,30.167],[-97.5873,30.1625],[-97.5932,30.1621],[-97.593,30.1633],[-97.5959,30.1647],[-97.5996,30.1579]]],[[[-97.8031,30.0947],[-97.8026,30.0877],[-97.7947,30.0859],[-97.7889,30.0867],[-97.7894,30.0795],[-97.7876,30.0756],[-97.7815,30.0811],[-97.7818,30.0927],[-97.7911,30.093],[-97.7931,30.0948],[-97.8031,30.0947]]],[[[-97.8561,30.2782],[-97.8535,30.2725],[-97.8518,30.2716],[-97.849,30.2724],[-97.8478,30.274],[-97.8445,30.274],[-97.8475,30.2804],[-97.8502,30.2824],[-97.8501,30.2843],[-97.8472,30.2863],[-97.8479,30.2873],[-97.8525,30.2829],[-97.8486,30.2792],[-97.8488,30.2772],[-97.8561,30.2782]]],[[[-97.6943,30.4633],[-97.6903,30.4604],[-97.6893,30.4613],[-97.6943,30.4633]]],[[[-97.8796,30.3966],[-97.8788,30.3945],[-97.8768,30.3942],[-97.8775,30.3966],[-97.8796,30.3966]]],[[[-97.8416,30.2762],[-97.8411,30.2747],[-97.8385,30.2784],[-97.8416,30.2762]]],[[[-97.881,30.3975],[-97.8796,30.3966],[-97.8801,30.398],[-97.881,30.3975]]],[[[-97.8649,30.3624],[-97.8636,30.3619],[-97.864,30.3629],[-97.8649,30.3624]]],[[[-97.8613,30.376],[-97.861,30.3755],[-97.8604,30.376],[-97.8613,30.376]]],[[[-97.864,30.3598],[-97.8635,30.3597],[-97.8634,30.3602],[-97.864,30.3598]]],[[[-97.8339,30.2835],[-97.8334,30.2833],[-97.8333,30.2835],[-97.8339,30.2835]]],[[[-97.8646,30.3587],[-97.8644,30.3585],[-97.8643,30.3588],[-97.8646,30.3587]]]]},"properties":{"NAME":"Austin city","BASENAME":"Austin","GEOID":"4805000"}}]}