{"type":"FeatureCollection","features":[{"type":"Feature","properties":{"name":"Beacon Blinds service area","approximate":true,"description":"Boundary traced from the user-supplied service-area map on September 22, 2026."},"geometry":{"type":"Polygon","coordinates":[[[-98.488755,30.645506],[-98.480499,30.631892],[-98.454357,30.581563],[-98.428215,30.528837],[-98.273426,30.401349],[-97.927388,30.123263],[-97.787734,30.074458],[-97.571029,30.138733],[-97.558646,30.154201],[-97.541448,30.21664],[-97.538696,30.262405],[-97.520809,30.341401],[-97.504986,30.407282],[-97.502234,30.447027],[-97.504986,30.470154],[-97.529752,30.524689],[-97.546263,30.563794],[-97.572405,30.617684],[-97.595796,30.666811],[-97.617122,30.695802],[-97.633633,30.725375],[-97.646016,30.737793],[-97.687981,30.743706],[-97.721003,30.751984],[-98.219766,30.784495],[-98.280306,30.777994],[-98.307136,30.768536],[-98.352541,30.749619],[-98.417896,30.715321],[-98.483939,30.682195],[-98.488067,30.670953],[-98.489443,30.654975],[-98.488755,30.645506]]]}}]}
