{"type":"FeatureCollection","features":[{"type":"Feature","geometry":{"type":"Polygon","coordinates":[[[-98.4574,30.8794],[-98.4564,30.8765],[-98.4508,30.8714],[-98.4324,30.8697],[-98.4248,30.8661],[-98.4215,30.8632],[-98.4193,30.8571],[-98.4222,30.8392],[-98.4216,30.835],[-98.41,30.836],[-98.4069,30.8391],[-98.405,30.8438],[-98.4014,30.844],[-98.3936,30.843],[-98.3814,30.8382],[-98.3766,30.8338],[-98.3776,30.8295],[-98.3801,30.826],[-98.3876,30.8193],[-98.4033,30.8179],[-98.4082,30.809],[-98.4094,30.8],[-98.4126,30.795],[-98.4156,30.7943],[-98.4254,30.7956],[-98.4309,30.7918],[-98.4325,30.7886],[-98.4312,30.7848],[-98.4235,30.7776],[-98.4225,30.775],[-98.4302,30.761],[-98.4299,30.7561],[-98.428,30.753],[-98.424,30.7505],[-98.4155,30.7516],[-98.4017,30.7495],[-98.3998,30.7482],[-98.4122,30.7462],[-98.3987,30.7459],[-98.39,30.7427],[-98.3945,30.7357],[-98.4114,30.7449],[-98.4185,30.74],[-98.4391,30.7362],[-98.4387,30.713],[-98.4086,30.7131],[-98.4083,30.7157],[-98.4042,30.7211],[-98.3927,30.7212],[-98.3854,30.7295],[-98.392,30.721],[-98.4041,30.7208],[-98.4072,30.7162],[-98.4072,30.7128],[-98.4097,30.7076],[-98.4132,30.7045],[-98.4135,30.7025],[-98.4065,30.6936],[-98.4038,30.6873],[-98.4027,30.6881],[-98.4035,30.6887],[-98.4027,30.6883],[-98.4037,30.6867],[-98.4018,30.6822],[-98.4018,30.6783],[-98.4,30.679],[-98.3991,30.6772],[-98.398,30.678],[-98.399,30.6768],[-98.3997,30.6786],[-98.4019,30.6779],[-98.4038,30.6755],[-98.4031,30.6741],[-98.406,30.671],[-98.4052,30.6695],[-98.394,30.6731],[-98.3917,30.6724],[-98.3864,30.6747],[-98.3848,30.6738],[-98.382,30.679],[-98.3759,30.6786],[-98.3756,30.6844],[-98.3569,30.6843],[-98.3569,30.6903],[-98.3527,30.6884],[-98.3492,30.6845],[-98.3426,30.6836],[-98.3164,30.6707],[-98.3189,30.6777],[-98.3153,30.6743],[-98.3051,30.6716],[-98.3005,30.6793],[-98.3,30.6775],[-98.2965,30.6749],[-98.2977,30.6717],[-98.2906,30.667],[-98.2877,30.6671],[-98.2866,30.6639],[-98.2704,30.6533],[-98.2662,30.6541],[-98.2595,30.6532],[-98.2566,30.6541],[-98.255,30.684],[-98.2526,30.6842],[-98.2493,30.683],[-98.2466,30.6781],[-98.2437,30.6768],[-98.2403,30.6714],[-98.2366,30.6692],[-98.2321,30.6691],[-98.2292,30.665],[-98.2304,30.649],[-98.2371,30.6457],[-98.2375,30.642],[-98.2345,30.6356],[-98.2296,30.6323],[-98.2337,30.6373],[-98.2259,30.6524],[-98.2268,30.6548],[-98.2228,30.6557],[-98.2216,30.6575],[-98.215,30.6546],[-98.2169,30.6611],[-98.2094,30.6627],[-98.2078,30.6566],[-98.2015,30.6582],[-98.198,30.6574],[-98.196,30.6492],[-98.1982,30.65],[-98.199,30.6448],[-98.1949,30.6434],[-98.1887,30.6529],[-98.1825,30.6501],[-98.1783,30.651],[-98.1633,30.6442],[-98.1638,30.6491],[-98.1599,30.6471],[-98.1619,30.6434],[-98.1482,30.6369],[-98.144,30.6459],[-98.1419,30.6479],[-98.1398,30.6482],[-98.1476,30.6579],[-98.1518,30.6569],[-98.1535,30.661],[-98.1504,30.6693],[-98.1525,30.6761],[-98.1447,30.6787],[-98.1511,30.6939],[-98.1441,30.6964],[-98.1478,30.7011],[-98.1607,30.7068],[-98.1597,30.7066],[-98.155,30.7123],[-98.1466,30.7178],[-98.1455,30.7203],[-98.1402,30.7252],[-98.1472,30.7294],[-98.1498,30.7324],[-98.1555,30.733],[-98.1552,30.7361],[-98.1621,30.739],[-98.1629,30.7408],[-98.1609,30.7494],[-98.1643,30.7494],[-98.1624,30.753],[-98.1674,30.7646],[-98.164,30.7657],[-98.1651,30.7666],[-98.1643,30.7712],[-98.1586,30.7738],[-98.1592,30.7754],[-98.1425,30.7806],[-98.142,30.7818],[-98.1296,30.787],[-98.1279,30.787],[-98.128,30.7844],[-98.1246,30.7848],[-98.1201,30.7901],[-98.1141,30.7893],[-98.1101,30.7908],[-98.1083,30.7898],[-98.1017,30.7902],[-98.0985,30.7924],[-98.0951,30.7929],[-98.0935,30.7984],[-98.0885,30.7978],[-98.0861,30.7988],[-98.0843,30.8042],[-98.0763,30.8044],[-98.0779,30.807],[-98.0844,30.8096],[-98.082,30.8126],[-98.0833,30.8173],[-98.0804,30.8183],[-98.0831,30.8239],[-98.0899,30.8278],[-98.0982,30.8435],[-98.097,30.8453],[-98.0978,30.847],[-98.0945,30.8502],[-98.0954,30.8547],[-98.0917,30.8585],[-98.0934,30.8641],[-98.0931,30.8724],[-98.0882,30.8738],[-98.0833,30.8774],[-98.0647,30.8828],[-98.0628,30.8793],[-98.0606,30.8804],[-98.0627,30.8849],[-98.0648,30.8841],[-98.068,30.8866],[-98.0734,30.8992],[-98.075,30.9004],[-98.1127,30.8884],[-98.1137,30.8917],[-98.1197,30.8896],[-98.122,30.8975],[-98.1188,30.8992],[-98.1191,30.907],[-98.1262,30.9155],[-98.1324,30.9203],[-98.1343,30.9239],[-98.1372,30.9245],[-98.1428,30.9228],[-98.1477,30.9153],[-98.1448,30.9176],[-98.1401,30.9166],[-98.1433,30.9149],[-98.1441,30.9112],[-98.1468,30.9096],[-98.1513,30.9105],[-98.1535,30.906],[-98.1617,30.9048],[-98.1795,30.9056],[-98.1874,30.9041],[-98.1923,30.9084],[-98.1953,30.8946],[-98.2112,30.8898],[-98.209,30.9068],[-98.2376,30.8956],[-98.2425,30.895],[-98.2486,30.9002],[-98.2808,30.8867],[-98.2843,30.89],[-98.2887,30.8864],[-98.2887,30.8958],[-98.3404,30.8952],[-98.3442,30.9117],[-98.3803,30.9109],[-98.3793,30.9097],[-98.3825,30.911],[-98.3828,30.9089],[-98.3849,30.9094],[-98.3836,30.911],[-98.4057,30.9107],[-98.4102,30.9085],[-98.4111,30.9055],[-98.4176,30.9024],[-98.4231,30.9016],[-98.436,30.9047],[-98.4426,30.9044],[-98.4442,30.9102],[-98.4465,30.9102],[-98.4452,30.9118],[-98.447,30.9122],[-98.4438,30.9137],[-98.4429,30.9174],[-98.4476,30.9159],[-98.4495,30.9032],[-98.4488,30.8903],[-98.4552,30.8848],[-98.4574,30.8794]]]},"properties":{"ZCTA5":"78611","BASENAME":"78611"}},{"type":"Feature","geometry":{"type":"Polygon","coordinates":[[[-98.0751,30.6644],[-98.0711,30.6539],[-98.0428,30.663],[-98.0344,30.6632],[-98.0303,30.6605],[-98.0499,30.6242],[-98.0396,30.6186],[-98.0365,30.6117],[-98.0297,30.6147],[-98.0127,30.6168],[-98.0063,30.6275],[-97.998,30.613],[-97.9924,30.6095],[-97.9779,30.6221],[-97.9663,30.6237],[-97.9567,30.6282],[-97.9547,30.6272],[-97.9553,30.632],[-97.9509,30.6352],[-97.9526,30.6391],[-97.9415,30.6426],[-97.9393,30.6369],[-97.945,30.6313],[-97.9437,30.6273],[-97.9371,30.6261],[-97.9364,30.6279],[-97.9401,30.6306],[-97.9402,30.6322],[-97.9326,30.6339],[-97.9305,30.6331],[-97.9291,30.636],[-97.9278,30.6362],[-97.9256,30.6312],[-97.9229,30.632],[-97.9216,30.6286],[-97.9185,30.6296],[-97.9198,30.6327],[-97.9057,30.6373],[-97.9057,30.6358],[-97.9002,30.6375],[-97.8981,30.6312],[-97.8963,30.6312],[-97.8956,30.6285],[-97.8916,30.631],[-97.8834,30.6259],[-97.8765,30.6241],[-97.8815,30.6401],[-97.8635,30.6466],[-97.8648,30.6461],[-97.8644,30.6432],[-97.8619,30.6389],[-97.8581,30.6401],[-97.8563,30.6331],[-97.8396,30.6384],[-97.8392,30.6371],[-97.8385,30.6379],[-97.8396,30.6386],[-97.8378,30.641],[-97.8322,30.6382],[-97.8278,30.6377],[-97.83,30.6451],[-97.8367,30.6531],[-97.8182,30.6584],[-97.8172,30.6572],[-97.8071,30.6608],[-97.8119,30.6704],[-97.8152,30.6699],[-97.8176,30.6733],[-97.818,30.6745],[-97.8165,30.6758],[-97.8179,30.6778],[-97.8211,30.6776],[-97.8246,30.6792],[-97.825,30.6806],[-97.8342,30.6845],[-97.8352,30.6867],[-97.8327,30.6887],[-97.8314,30.6928],[-97.8283,30.696],[-97.8357,30.6907],[-97.8409,30.7027],[-97.8552,30.7052],[-97.8609,30.7079],[-97.861,30.7113],[-97.8597,30.7119],[-97.8601,30.7186],[-97.8565,30.7202],[-97.8596,30.7288],[-97.8641,30.7276],[-97.8715,30.7452],[-97.8754,30.7439],[-97.8765,30.7465],[-97.8771,30.7749],[-97.8887,30.7717],[-97.891,30.7798],[-97.8974,30.7845],[-97.8987,30.7925],[-97.9135,30.7878],[-97.9183,30.7994],[-97.9293,30.7961],[-97.9315,30.7966],[-97.9265,30.8016],[-97.9263,30.8052],[-97.9282,30.8068],[-97.9375,30.8036],[-97.9396,30.8065],[-97.9629,30.7856],[-98.0044,30.7084],[-98.0172,30.7133],[-98.021,30.7134],[-98.0341,30.7114],[-98.0338,30.7058],[-98.0322,30.7031],[-98.0345,30.7041],[-98.0362,30.7034],[-98.038,30.7001],[-98.0433,30.6993],[-98.0463,30.7023],[-98.0506,30.6994],[-98.0597,30.7012],[-98.062,30.6978],[-98.0599,30.6926],[-98.0593,30.6845],[-98.0668,30.6735],[-98.0751,30.6644]]]},"properties":{"ZCTA5":"78642","BASENAME":"78642"}},{"type":"Feature","geometry":{"type":"Polygon","coordinates":[[[-98.0747,30.291],[-98.0629,30.2858],[-98.044,30.2899],[-98.042,30.2899],[-98.041,30.2879],[-98.0372,30.287],[-98.0364,30.2858],[-98.0403,30.2843],[-98.0266,30.2607],[-98.0307,30.2545],[-98.0267,30.2517],[-98.0255,30.2539],[-98.02,30.2488],[-98.0168,30.2501],[-98.0114,30.2486],[-98.0032,30.251],[-98.003,30.2548],[-97.9989,30.2554],[-97.9968,30.2575],[-97.9974,30.2615],[-97.9922,30.2621],[-97.9961,30.266],[-97.9919,30.2682],[-97.9908,30.2671],[-97.9882,30.2674],[-97.9849,30.2734],[-97.9824,30.2716],[-97.9829,30.2674],[-97.9812,30.2654],[-97.9796,30.265],[-97.9775,30.2669],[-97.9775,30.2707],[-97.9757,30.2725],[-97.9691,30.2647],[-97.9663,30.2658],[-97.9649,30.2712],[-97.9563,30.2694],[-97.957,30.2717],[-97.9605,30.2739],[-97.9602,30.2755],[-97.9577,30.2769],[-97.9519,30.2756],[-97.9468,30.2768],[-97.9437,30.2752],[-97.9419,30.2765],[-97.9432,30.2796],[-97.9422,30.2808],[-97.9396,30.281],[-97.9327,30.2773],[-97.9323,30.2793],[-97.9337,30.2813],[-97.9319,30.2817],[-97.9296,30.2789],[-97.9306,30.2764],[-97.9272,30.281],[-97.9292,30.2834],[-97.9262,30.2821],[-97.9248,30.2832],[-97.926,30.2871],[-97.9249,30.2885],[-97.9197,30.2875],[-97.9185,30.2883],[-97.921,30.2908],[-97.9265,30.2922],[-97.9268,30.2958],[-97.9203,30.2977],[-97.9185,30.3019],[-97.9113,30.3068],[-97.9093,30.3069],[-97.9071,30.3047],[-97.9068,30.3094],[-97.9108,30.3111],[-97.9095,30.3129],[-97.9117,30.3211],[-97.9074,30.3278],[-97.9094,30.3305],[-97.9207,30.3249],[-97.9247,30.326],[-97.934,30.3314],[-97.934,30.3365],[-97.9366,30.3366],[-97.9358,30.3378],[-97.9367,30.3392],[-97.9382,30.3395],[-97.9392,30.3375],[-97.9513,30.3441],[-97.9532,30.3427],[-97.9566,30.3429],[-97.9617,30.3389],[-97.9627,30.3371],[-97.9614,30.3332],[-97.9653,30.3321],[-97.9648,30.3314],[-97.9666,30.33],[-97.9689,30.3345],[-97.9704,30.3344],[-97.9704,30.3388],[-97.9686,30.3409],[-97.9731,30.3434],[-97.9749,30.3416],[-97.9746,30.3395],[-97.9782,30.3403],[-97.9769,30.3514],[-97.9798,30.3519],[-97.9795,30.3538],[-97.9826,30.3551],[-97.9826,30.3574],[-97.9864,30.3553],[-97.9895,30.3558],[-97.9919,30.3524],[-97.9939,30.3516],[-97.9958,30.3527],[-97.9963,30.357],[-97.9995,30.3604],[-98.0015,30.3589],[-98.0006,30.3577],[-98.0032,30.3585],[-98.0017,30.3561],[-98.0033,30.3575],[-98.0061,30.3577],[-98.0049,30.3555],[-98.0084,30.3588],[-98.0085,30.3629],[-98.01,30.3629],[-98.0105,30.3653],[-98.0171,30.368],[-98.0186,30.3663],[-98.0187,30.3622],[-98.0199,30.3614],[-98.019,30.3587],[-98.0221,30.3508],[-98.0245,30.3509],[-98.0225,30.3525],[-98.0258,30.3537],[-98.0219,30.3538],[-98.0215,30.3559],[-98.0266,30.3562],[-98.0264,30.3546],[-98.0284,30.3555],[-98.03,30.3544],[-98.0283,30.353],[-98.0274,30.3446],[-98.026,30.3429],[-98.0269,30.3387],[-98.0235,30.3361],[-98.0244,30.3316],[-98.0357,30.3388],[-98.0402,30.3369],[-98.0407,30.3349],[-98.0429,30.3349],[-98.0439,30.3304],[-98.0428,30.327],[-98.0441,30.3265],[-98.0435,30.3255],[-98.0453,30.3257],[-98.0435,30.3225],[-98.0468,30.3226],[-98.0556,30.3161],[-98.0563,30.3108],[-98.0587,30.3087],[-98.0566,30.3055],[-98.0581,30.3007],[-98.0719,30.2965],[-98.0747,30.291]]]},"properties":{"ZCTA5":"78738","BASENAME":"78738"}},{"type":"Feature","geometry":{"type":"Polygon","coordinates":[[[-98.2665,30.4383],[-98.2628,30.4348],[-98.2537,30.4143],[-98.2487,30.413],[-98.2435,30.4146],[-98.2354,30.4132],[-98.2296,30.4141],[-98.2189,30.4251],[-98.2083,30.4217],[-98.2067,30.4203],[-98.2065,30.4132],[-98.2101,30.407],[-98.2072,30.4052],[-98.1946,30.39],[-98.1891,30.3853],[-98.1821,30.3874],[-98.1792,30.384],[-98.1737,30.3835],[-98.1698,30.3789],[-98.1652,30.3792],[-98.1619,30.3778],[-98.1604,30.3759],[-98.1617,30.3729],[-98.1589,30.3766],[-98.1589,30.3732],[-98.1522,30.3732],[-98.1452,30.3653],[-98.1375,30.3732],[-98.1318,30.372],[-98.129,30.3726],[-98.1253,30.3753],[-98.119,30.3774],[-98.1164,30.36],[-98.1141,30.3592],[-98.1114,30.3632],[-98.1013,30.3583],[-98.1021,30.357],[-98.095,30.3535],[-98.1077,30.3465],[-98.0997,30.3343],[-98.112,30.3277],[-98.0906,30.3121],[-98.0835,30.3204],[-98.0819,30.3282],[-98.0766,30.3372],[-98.0768,30.3452],[-98.0741,30.3464],[-98.0693,30.3442],[-98.0625,30.3478],[-98.0587,30.342],[-98.0551,30.3401],[-98.0513,30.3417],[-98.0475,30.3387],[-98.0439,30.3396],[-98.0401,30.3369],[-98.0357,30.3388],[-98.0244,30.3316],[-98.0235,30.3361],[-98.0269,30.3387],[-98.026,30.3429],[-98.0274,30.3446],[-98.0283,30.353],[-98.03,30.3544],[-98.0284,30.3555],[-98.0264,30.3546],[-98.0266,30.3562],[-98.0215,30.3559],[-98.0219,30.3538],[-98.0258,30.3537],[-98.0225,30.3525],[-98.0245,30.3509],[-98.0221,30.3508],[-98.019,30.3587],[-98.0199,30.3614],[-98.0187,30.3622],[-98.0186,30.3663],[-98.0156,30.368],[-98.0142,30.3661],[-98.0132,30.3671],[-98.0148,30.3705],[-98.0091,30.3712],[-98.0125,30.3717],[-98.0156,30.3757],[-98.0148,30.3821],[-98.0017,30.3947],[-97.9883,30.4015],[-97.985,30.4048],[-97.9841,30.4079],[-97.9845,30.4127],[-97.9868,30.4146],[-98.0195,30.4149],[-98.0305,30.4158],[-98.0367,30.4184],[-98.0359,30.426],[-98.0319,30.4322],[-98.0119,30.4492],[-98.0059,30.4504],[-97.9994,30.4571],[-97.9991,30.4642],[-98.0029,30.4736],[-98.006,30.4781],[-98.0122,30.4806],[-98.0207,30.4794],[-98.0238,30.4763],[-98.029,30.4597],[-98.0363,30.4477],[-98.0506,30.4351],[-98.0559,30.433],[-98.0594,30.4339],[-98.062,30.4374],[-98.0633,30.442],[-98.0542,30.4509],[-98.0553,30.4567],[-98.0625,30.4625],[-98.0778,30.4633],[-98.0856,30.4654],[-98.089,30.4683],[-98.0911,30.4724],[-98.0911,30.476],[-98.0797,30.4896],[-98.0794,30.4926],[-98.0808,30.4951],[-98.0882,30.4976],[-98.1009,30.4975],[-98.1083,30.4936],[-98.1137,30.4856],[-98.1182,30.4848],[-98.1231,30.4847],[-98.1231,30.487],[-98.1259,30.488],[-98.1276,30.4904],[-98.1309,30.4976],[-98.1337,30.5133],[-98.131,30.5168],[-98.1253,30.5192],[-98.1243,30.5226],[-98.1231,30.5211],[-98.1216,30.5233],[-98.1249,30.5299],[-98.1242,30.5314],[-98.1258,30.5364],[-98.127,30.5367],[-98.1311,30.5348],[-98.1312,30.5331],[-98.1321,30.5334],[-98.1332,30.5306],[-98.1407,30.5228],[-98.1425,30.5227],[-98.1425,30.5212],[-98.1439,30.5217],[-98.1431,30.5231],[-98.1464,30.5244],[-98.154,30.5232],[-98.1543,30.5217],[-98.1549,30.523],[-98.1604,30.5225],[-98.1594,30.5232],[-98.1668,30.5257],[-98.1708,30.5294],[-98.1704,30.5345],[-98.1726,30.5365],[-98.176,30.5359],[-98.179,30.5324],[-98.1863,30.5353],[-98.1891,30.539],[-98.1921,30.5374],[-98.1944,30.5342],[-98.1953,30.5346],[-98.196,30.5323],[-98.1954,30.5349],[-98.2063,30.5354],[-98.2104,30.5349],[-98.2128,30.5334],[-98.2186,30.5352],[-98.2231,30.5389],[-98.2238,30.537],[-98.2224,30.5332],[-98.2287,30.5322],[-98.23,30.5207],[-98.2318,30.5199],[-98.2345,30.5218],[-98.2371,30.5209],[-98.2354,30.5167],[-98.2348,30.5102],[-98.2402,30.502],[-98.2423,30.5016],[-98.2431,30.4993],[-98.2451,30.4999],[-98.2485,30.4971],[-98.2574,30.4967],[-98.2623,30.4989],[-98.2637,30.4984],[-98.2504,30.4942],[-98.2401,30.4931],[-98.2501,30.4905],[-98.2532,30.4876],[-98.25,30.4803],[-98.2471,30.4768],[-98.247,30.4743],[-98.2439,30.4742],[-98.2439,30.4678],[-98.2306,30.4677],[-98.2307,30.4582],[-98.2261,30.4566],[-98.2262,30.4527],[-98.2606,30.4619],[-98.2599,30.4518],[-98.2631,30.4479],[-98.2665,30.4383]]]},"properties":{"ZCTA5":"78669","BASENAME":"78669"}},{"type":"Feature","geometry":{"type":"Polygon","coordinates":[[[-97.8771,30.7749],[-97.8765,30.7465],[-97.8754,30.7439],[-97.8715,30.7452],[-97.8641,30.7276],[-97.8596,30.7288],[-97.8565,30.7202],[-97.8601,30.7186],[-97.8597,30.7119],[-97.861,30.7113],[-97.8609,30.7079],[-97.8552,30.7052],[-97.8409,30.7027],[-97.8357,30.6907],[-97.8293,30.6962],[-97.8215,30.6977],[-97.8094,30.6884],[-97.8037,30.6907],[-97.8015,30.6905],[-97.7856,30.6808],[-97.7823,30.6801],[-97.7806,30.681],[-97.7729,30.678],[-97.7612,30.67],[-97.7524,30.6691],[-97.7507,30.6758],[-97.7494,30.6768],[-97.7363,30.6773],[-97.7306,30.675],[-97.7267,30.6666],[-97.7215,30.6701],[-97.7197,30.6794],[-97.7162,30.6876],[-97.7097,30.6929],[-97.7064,30.7015],[-97.6902,30.7086],[-97.6845,30.7139],[-97.6921,30.7133],[-97.6917,30.7172],[-97.6929,30.7196],[-97.6742,30.7255],[-97.6659,30.7197],[-97.6549,30.7039],[-97.6517,30.7016],[-97.6259,30.776],[-97.6273,30.774],[-97.6336,30.7726],[-97.6433,30.7958],[-97.6537,30.7925],[-97.6523,30.7886],[-97.6654,30.7844],[-97.6701,30.7957],[-97.6838,30.7897],[-97.6911,30.8071],[-97.7021,30.8035],[-97.7037,30.8082],[-97.7171,30.8037],[-97.702,30.7665],[-97.7067,30.7648],[-97.7104,30.7611],[-97.7202,30.7568],[-97.7124,30.7498],[-97.7207,30.7544],[-97.732,30.7509],[-97.7343,30.7567],[-97.7361,30.7568],[-97.7341,30.7591],[-97.7458,30.7636],[-97.7533,30.7729],[-97.758,30.77],[-97.7562,30.7643],[-97.7606,30.7661],[-97.7609,30.768],[-97.7636,30.7706],[-97.7728,30.7674],[-97.781,30.77],[-97.7864,30.7651],[-97.7847,30.7611],[-97.7984,30.7567],[-97.7971,30.7534],[-97.8061,30.7506],[-97.8147,30.7706],[-97.8168,30.7721],[-97.8196,30.7719],[-97.8237,30.7791],[-97.8137,30.7818],[-97.8192,30.7948],[-97.8241,30.7933],[-97.828,30.8],[-97.838,30.7973],[-97.8419,30.8067],[-97.8482,30.8049],[-97.85,30.8026],[-97.8441,30.7876],[-97.845,30.785],[-97.8771,30.7749]]]},"properties":{"ZCTA5":"78633","BASENAME":"78633"}},{"type":"Feature","geometry":{"type":"Polygon","coordinates":[[[-98.0148,30.3705],[-98.0136,30.3668],[-98.0105,30.3653],[-98.01,30.3629],[-98.0085,30.3629],[-98.0084,30.3588],[-98.0049,30.3555],[-98.0061,30.3577],[-98.0033,30.3575],[-98.0017,30.3561],[-98.0032,30.3585],[-98.0006,30.3577],[-98.0015,30.3589],[-97.9996,30.3604],[-97.9963,30.357],[-97.9957,30.3525],[-97.9936,30.3515],[-97.9895,30.3558],[-97.9864,30.3553],[-97.9826,30.3574],[-97.9826,30.3551],[-97.9795,30.3538],[-97.9798,30.3519],[-97.9769,30.3514],[-97.9782,30.3403],[-97.9746,30.3395],[-97.9749,30.3416],[-97.9731,30.3434],[-97.9686,30.3409],[-97.9704,30.3388],[-97.9704,30.3344],[-97.9689,30.3345],[-97.9666,30.33],[-97.9648,30.3314],[-97.9653,30.3321],[-97.9614,30.3332],[-97.9627,30.3371],[-97.9617,30.3389],[-97.9566,30.3429],[-97.9532,30.3427],[-97.9514,30.3441],[-97.9486,30.3423],[-97.9463,30.3423],[-97.9437,30.3394],[-97.9409,30.3393],[-97.9392,30.3375],[-97.9382,30.3395],[-97.937,30.3393],[-97.9359,30.3379],[-97.9366,30.3366],[-97.934,30.3365],[-97.9168,30.3544],[-97.9135,30.3622],[-97.9145,30.3848],[-97.9134,30.3883],[-97.9111,30.3905],[-97.8992,30.3948],[-97.9008,30.4008],[-97.9155,30.4295],[-97.9267,30.4362],[-97.9387,30.4373],[-97.9468,30.4342],[-97.9499,30.4312],[-97.9519,30.4267],[-97.9513,30.4198],[-97.9423,30.408],[-97.9408,30.4042],[-97.9413,30.3987],[-97.944,30.3947],[-97.9707,30.3932],[-97.9762,30.3901],[-97.9896,30.3775],[-98.0091,30.3712],[-98.0148,30.3705]]]},"properties":{"ZCTA5":"78734","BASENAME":"78734"}},{"type":"Feature","geometry":{"type":"Polygon","coordinates":[[[-98.4138,30.5855],[-98.4106,30.5736],[-98.4054,30.5662],[-98.4023,30.5638],[-98.3975,30.5641],[-98.3759,30.5739],[-98.3703,30.5744],[-98.3643,30.5716],[-98.352,30.5581],[-98.3425,30.5557],[-98.3377,30.5559],[-98.3259,30.5661],[-98.3227,30.5669],[-98.3169,30.5648],[-98.3093,30.5589],[-98.3004,30.5547],[-98.2891,30.5531],[-98.2848,30.5571],[-98.2841,30.5561],[-98.2909,30.5496],[-98.2909,30.5453],[-98.3027,30.5452],[-98.3024,30.5266],[-98.305,30.5266],[-98.3055,30.5177],[-98.3078,30.5153],[-98.3111,30.5152],[-98.3131,30.5104],[-98.3156,30.5094],[-98.3156,30.5073],[-98.3183,30.506],[-98.3182,30.5047],[-98.3219,30.5046],[-98.3213,30.4853],[-98.323,30.4852],[-98.3231,30.4824],[-98.3212,30.4821],[-98.3209,30.478],[-98.2262,30.4527],[-98.2261,30.4566],[-98.2307,30.4582],[-98.2306,30.4677],[-98.2439,30.4678],[-98.2439,30.4742],[-98.247,30.4743],[-98.2471,30.4768],[-98.25,30.4803],[-98.2532,30.4876],[-98.2501,30.4905],[-98.2401,30.4931],[-98.2504,30.4942],[-98.2637,30.4984],[-98.2623,30.4989],[-98.2574,30.4967],[-98.2485,30.4971],[-98.2451,30.4999],[-98.2431,30.4993],[-98.2423,30.5016],[-98.2402,30.502],[-98.2348,30.5102],[-98.2354,30.5167],[-98.2371,30.5209],[-98.2345,30.5218],[-98.2318,30.5199],[-98.23,30.5207],[-98.2287,30.5322],[-98.2224,30.5332],[-98.2238,30.537],[-98.2231,30.5389],[-98.2186,30.5352],[-98.2128,30.5334],[-98.2104,30.5349],[-98.2063,30.5354],[-98.1954,30.5349],[-98.196,30.5323],[-98.1953,30.5346],[-98.1944,30.5342],[-98.1921,30.5374],[-98.1891,30.539],[-98.1863,30.5353],[-98.179,30.5324],[-98.176,30.5359],[-98.1726,30.5365],[-98.1704,30.5345],[-98.1708,30.5294],[-98.1668,30.5257],[-98.1594,30.5232],[-98.1604,30.5225],[-98.1549,30.523],[-98.1543,30.5217],[-98.154,30.5232],[-98.1464,30.5244],[-98.1431,30.5231],[-98.1439,30.5217],[-98.1425,30.5212],[-98.1425,30.5227],[-98.1407,30.5228],[-98.1332,30.5306],[-98.13,30.5359],[-98.1258,30.5364],[-98.1242,30.5314],[-98.1249,30.5299],[-98.1216,30.5233],[-98.1231,30.5211],[-98.1243,30.5226],[-98.1253,30.5192],[-98.131,30.5168],[-98.1337,30.5133],[-98.1309,30.4976],[-98.1276,30.4904],[-98.1259,30.488],[-98.1231,30.487],[-98.1231,30.4847],[-98.1182,30.4848],[-98.1137,30.4856],[-98.1083,30.4936],[-98.1009,30.4975],[-98.0882,30.4976],[-98.0808,30.4951],[-98.0794,30.4926],[-98.0797,30.4896],[-98.0911,30.476],[-98.0911,30.4724],[-98.0881,30.4672],[-98.0824,30.4641],[-98.0625,30.4625],[-98.0572,30.4588],[-98.0553,30.4565],[-98.0542,30.4509],[-98.0633,30.442],[-98.0609,30.4353],[-98.0559,30.433],[-98.0506,30.4351],[-98.0363,30.4477],[-98.029,30.4597],[-98.0247,30.474],[-98.0222,30.4781],[-98.0177,30.4806],[-98.0095,30.48],[-98.0083,30.4831],[-98.0073,30.4827],[-97.9995,30.4938],[-97.9996,30.4989],[-98.0025,30.5043],[-98.0003,30.5042],[-97.9973,30.5073],[-97.9931,30.5057],[-97.9821,30.5224],[-98.0195,30.5401],[-98.0118,30.5518],[-98.0537,30.5721],[-98.0543,30.5744],[-98.0597,30.5775],[-98.0639,30.5824],[-98.0625,30.5881],[-98.0667,30.5928],[-98.0548,30.615],[-98.0568,30.6121],[-98.0605,30.6126],[-98.0632,30.614],[-98.0636,30.6174],[-98.0648,30.6169],[-98.0692,30.6193],[-98.0728,30.6187],[-98.074,30.6205],[-98.0833,30.6091],[-98.0858,30.6038],[-98.0959,30.5997],[-98.1017,30.6055],[-98.105,30.6049],[-98.1078,30.608],[-98.1184,30.6132],[-98.128,30.6067],[-98.1298,30.6076],[-98.131,30.6105],[-98.1291,30.6144],[-98.1581,30.6283],[-98.159,30.627],[-98.163,30.6303],[-98.1635,30.6341],[-98.16,30.6375],[-98.1633,30.6414],[-98.1621,30.6434],[-98.1633,30.6442],[-98.1783,30.651],[-98.1825,30.6501],[-98.1887,30.6529],[-98.1949,30.6434],[-98.199,30.6448],[-98.1982,30.65],[-98.196,30.6492],[-98.198,30.6574],[-98.2015,30.6582],[-98.2078,30.6566],[-98.2094,30.6627],[-98.2169,30.6611],[-98.215,30.6546],[-98.2216,30.6575],[-98.2228,30.6557],[-98.2268,30.6548],[-98.2259,30.6524],[-98.2337,30.6373],[-98.2296,30.6323],[-98.2345,30.6356],[-98.2375,30.642],[-98.2371,30.6457],[-98.2304,30.649],[-98.2292,30.665],[-98.2321,30.6691],[-98.2366,30.6692],[-98.2403,30.6714],[-98.2437,30.6768],[-98.2466,30.6781],[-98.2493,30.683],[-98.2526,30.6842],[-98.255,30.684],[-98.2566,30.6541],[-98.2601,30.6532],[-98.2662,30.6541],[-98.2704,30.6533],[-98.2866,30.6639],[-98.2877,30.6671],[-98.2906,30.667],[-98.2977,30.6717],[-98.2965,30.6749],[-98.3,30.6775],[-98.3005,30.6793],[-98.3051,30.6716],[-98.3153,30.6743],[-98.3189,30.6777],[-98.3164,30.6707],[-98.3426,30.6836],[-98.3492,30.6845],[-98.3527,30.6884],[-98.3569,30.6903],[-98.3569,30.6843],[-98.3756,30.6844],[-98.3759,30.6786],[-98.382,30.679],[-98.3834,30.6761],[-98.3818,30.6752],[-98.3864,30.6699],[-98.3863,30.6641],[-98.3802,30.6616],[-98.3775,30.6591],[-98.3737,30.6592],[-98.3715,30.661],[-98.3686,30.6601],[-98.3678,30.6583],[-98.3712,30.6541],[-98.3677,30.653],[-98.369,30.6474],[-98.371,30.6456],[-98.3789,30.6456],[-98.3789,30.6431],[-98.3819,30.6406],[-98.3808,30.6398],[-98.4085,30.6375],[-98.4097,30.6303],[-98.4045,30.6259],[-98.4068,30.6239],[-98.4107,30.6242],[-98.4118,30.6228],[-98.4102,30.617],[-98.4095,30.6182],[-98.4078,30.618],[-98.4092,30.6155],[-98.406,30.6145],[-98.4082,30.6139],[-98.4024,30.606],[-98.4016,30.6068],[-98.4005,30.6054],[-98.4014,30.6038],[-98.4,30.5973],[-98.4016,30.5938],[-98.4118,30.5882],[-98.4138,30.5855]]]},"properties":{"ZCTA5":"78654","BASENAME":"78654"}},{"type":"Feature","geometry":{"type":"Polygon","coordinates":[[[-97.693,30.583],[-97.6922,30.5708],[-97.6854,30.5735],[-97.6845,30.5714],[-97.6684,30.5767],[-97.6699,30.5805],[-97.6565,30.5834],[-97.6536,30.582],[-97.6546,30.5844],[-97.6439,30.5877],[-97.6461,30.5915],[-97.6386,30.5939],[-97.6374,30.5896],[-97.6359,30.5901],[-97.6343,30.5862],[-97.6347,30.5838],[-97.6322,30.5773],[-97.6265,30.5804],[-97.6,30.5887],[-97.6019,30.5931],[-97.6048,30.5922],[-97.606,30.5974],[-97.6083,30.5967],[-97.6122,30.6057],[-97.6224,30.6025],[-97.6261,30.6116],[-97.6074,30.6175],[-97.6016,30.6112],[-97.5935,30.6137],[-97.5813,30.6176],[-97.5819,30.619],[-97.5686,30.6221],[-97.5694,30.6239],[-97.5644,30.6249],[-97.5604,30.6272],[-97.5608,30.6282],[-97.5543,30.6299],[-97.5522,30.6288],[-97.5519,30.6313],[-97.548,30.6334],[-97.5474,30.6363],[-97.5409,30.6354],[-97.5258,30.6291],[-97.5153,30.6323],[-97.5112,30.6323],[-97.501,30.6268],[-97.4954,30.6284],[-97.4896,30.6268],[-97.4833,30.628],[-97.4791,30.6275],[-97.4732,30.6293],[-97.4696,30.633],[-97.4627,30.6311],[-97.461,30.6326],[-97.4659,30.6355],[-97.4654,30.6377],[-97.4713,30.6362],[-97.4825,30.6627],[-97.4961,30.667],[-97.4903,30.6799],[-97.4936,30.6879],[-97.5033,30.6846],[-97.5265,30.6915],[-97.532,30.678],[-97.5451,30.682],[-97.5462,30.6843],[-97.5495,30.6831],[-97.553,30.6843],[-97.5545,30.6882],[-97.5538,30.6913],[-97.5567,30.6905],[-97.5592,30.6962],[-97.5551,30.6976],[-97.5575,30.7044],[-97.5556,30.705],[-97.5517,30.7158],[-97.5495,30.7161],[-97.5478,30.7188],[-97.5498,30.7239],[-97.5543,30.7249],[-97.5585,30.7241],[-97.5629,30.7282],[-97.5657,30.7355],[-97.5711,30.7394],[-97.5761,30.7404],[-97.5569,30.7488],[-97.5676,30.7749],[-97.5802,30.7709],[-97.579,30.7682],[-97.5809,30.7675],[-97.5789,30.763],[-97.5836,30.7614],[-97.5818,30.7563],[-97.588,30.7544],[-97.5914,30.756],[-97.5916,30.7583],[-97.5957,30.7608],[-97.5958,30.7629],[-97.6122,30.758],[-97.619,30.7735],[-97.6243,30.7719],[-97.6261,30.7737],[-97.6254,30.7762],[-97.6343,30.7529],[-97.6502,30.7047],[-97.6523,30.7019],[-97.6604,30.6807],[-97.6788,30.6509],[-97.6873,30.6426],[-97.6899,30.6384],[-97.6919,30.6291],[-97.6864,30.6069],[-97.692,30.5898],[-97.693,30.583]],[[-97.6102,30.672],[-97.5919,30.6739],[-97.5934,30.6803],[-97.5919,30.6808],[-97.5905,30.6774],[-97.5911,30.6739],[-97.5864,30.6758],[-97.5859,30.6745],[-97.5865,30.6734],[-97.5945,30.6712],[-97.5937,30.6673],[-97.5959,30.6671],[-97.5958,30.6632],[-97.5972,30.6668],[-97.6018,30.6699],[-97.6102,30.672]]]},"properties":{"ZCTA5":"78626","BASENAME":"78626"}},{"type":"Feature","geometry":{"type":"Polygon","coordinates":[[[-98.552,30.7349],[-98.5453,30.7304],[-98.536,30.7222],[-98.5339,30.7187],[-98.5283,30.7149],[-98.5146,30.71],[-98.5024,30.7024],[-98.4839,30.7025],[-98.4789,30.7006],[-98.4749,30.6971],[-98.4753,30.6922],[-98.4808,30.6883],[-98.4855,30.6803],[-98.4861,30.6777],[-98.4846,30.6749],[-98.4874,30.6695],[-98.4886,30.662],[-98.4922,30.6634],[-98.4949,30.6587],[-98.5011,30.6586],[-98.5068,30.6551],[-98.5145,30.6557],[-98.5187,30.6532],[-98.5185,30.6481],[-98.5207,30.6408],[-98.5242,30.6397],[-98.5272,30.6303],[-98.5286,30.6293],[-98.5225,30.6182],[-98.516,30.611],[-98.5054,30.6089],[-98.4941,30.6105],[-98.4862,30.6096],[-98.481,30.6113],[-98.4782,30.6135],[-98.4702,30.6274],[-98.4604,30.6343],[-98.4608,30.6276],[-98.4627,30.6261],[-98.464,30.6163],[-98.4582,30.6148],[-98.4565,30.6159],[-98.458,30.6204],[-98.4578,30.6245],[-98.4557,30.6258],[-98.4556,30.6271],[-98.4505,30.6244],[-98.4493,30.6248],[-98.4485,30.626],[-98.4502,30.6294],[-98.4466,30.633],[-98.4444,30.632],[-98.4446,30.6304],[-98.4488,30.6224],[-98.4496,30.6176],[-98.4538,30.6114],[-98.4529,30.5929],[-98.449,30.587],[-98.4411,30.5922],[-98.4336,30.5951],[-98.424,30.5948],[-98.4179,30.6039],[-98.4136,30.6045],[-98.4138,30.6068],[-98.4198,30.6136],[-98.4119,30.6164],[-98.4006,30.5995],[-98.4014,30.6038],[-98.4005,30.6054],[-98.4016,30.6068],[-98.4024,30.606],[-98.4082,30.6139],[-98.406,30.6145],[-98.4092,30.6155],[-98.4078,30.618],[-98.4095,30.6182],[-98.4102,30.617],[-98.4118,30.6228],[-98.4107,30.6242],[-98.4068,30.6239],[-98.4045,30.6259],[-98.4097,30.6303],[-98.4085,30.6375],[-98.3808,30.6398],[-98.3819,30.6406],[-98.3789,30.6431],[-98.3789,30.6456],[-98.3701,30.6461],[-98.3677,30.653],[-98.3712,30.6541],[-98.3678,30.6583],[-98.3689,30.6604],[-98.3715,30.661],[-98.3737,30.6592],[-98.3775,30.6591],[-98.3802,30.6616],[-98.3863,30.6641],[-98.3864,30.6699],[-98.3817,30.6755],[-98.3834,30.6761],[-98.3846,30.6757],[-98.3848,30.6738],[-98.3864,30.6747],[-98.3917,30.6724],[-98.394,30.6731],[-98.4052,30.6695],[-98.406,30.671],[-98.4031,30.6741],[-98.4038,30.6755],[-98.4019,30.6779],[-98.3997,30.6786],[-98.399,30.6768],[-98.398,30.678],[-98.3991,30.6772],[-98.4,30.679],[-98.4018,30.6783],[-98.4018,30.6822],[-98.4037,30.6867],[-98.4027,30.6883],[-98.4035,30.6887],[-98.4027,30.6881],[-98.4038,30.6873],[-98.4065,30.6936],[-98.4135,30.7025],[-98.4132,30.7045],[-98.4097,30.7076],[-98.4072,30.7128],[-98.4072,30.7162],[-98.4041,30.7208],[-98.392,30.721],[-98.3854,30.7295],[-98.3927,30.7212],[-98.4042,30.7211],[-98.4083,30.7157],[-98.4086,30.7131],[-98.4243,30.713],[-98.4254,30.7096],[-98.4366,30.7023],[-98.4463,30.7014],[-98.458,30.6946],[-98.4611,30.6967],[-98.4687,30.7084],[-98.4919,30.7162],[-98.5094,30.7275],[-98.513,30.7352],[-98.552,30.7349]]]},"properties":{"ZCTA5":"78639","BASENAME":"78639"}},{"type":"Feature","geometry":{"type":"Polygon","coordinates":[[[-98.4728,30.5581],[-98.4576,30.5449],[-98.443,30.5366],[-98.4477,30.5238],[-98.4403,30.5106],[-98.441,30.5019],[-98.4115,30.5021],[-98.3436,30.4841],[-98.3426,30.4958],[-98.3334,30.4964],[-98.3285,30.4967],[-98.3281,30.4853],[-98.3213,30.4853],[-98.3219,30.5046],[-98.3182,30.5047],[-98.3183,30.506],[-98.3156,30.5073],[-98.3156,30.5094],[-98.3131,30.5104],[-98.3111,30.5152],[-98.3078,30.5153],[-98.3055,30.5177],[-98.305,30.5266],[-98.3024,30.5266],[-98.3027,30.5452],[-98.2909,30.5453],[-98.2909,30.5496],[-98.284,30.5561],[-98.2848,30.5571],[-98.2891,30.5531],[-98.3004,30.5547],[-98.3222,30.567],[-98.3259,30.5661],[-98.3377,30.5559],[-98.3425,30.5557],[-98.352,30.5581],[-98.3643,30.5716],[-98.3703,30.5744],[-98.3759,30.5739],[-98.3975,30.5641],[-98.4023,30.5638],[-98.4054,30.5662],[-98.4106,30.5736],[-98.4131,30.5816],[-98.4206,30.5739],[-98.4191,30.5677],[-98.4234,30.5588],[-98.4268,30.5592],[-98.4334,30.5662],[-98.4377,30.5665],[-98.4445,30.5637],[-98.4456,30.5654],[-98.4447,30.5691],[-98.4458,30.5702],[-98.4534,30.5719],[-98.4589,30.5702],[-98.4653,30.5743],[-98.4699,30.5715],[-98.4677,30.5625],[-98.4689,30.5603],[-98.4728,30.5581]]]},"properties":{"ZCTA5":"78657","BASENAME":"78657"}},{"type":"Feature","geometry":{"type":"Polygon","coordinates":[[[-97.8476,30.636],[-97.8449,30.6298],[-97.8435,30.6296],[-97.8436,30.6314],[-97.8387,30.631],[-97.8387,30.6266],[-97.8435,30.6265],[-97.8429,30.625],[-97.846,30.6238],[-97.8443,30.6225],[-97.8461,30.6219],[-97.8464,30.6167],[-97.8375,30.6144],[-97.831,30.6096],[-97.828,30.6093],[-97.8256,30.6107],[-97.8269,30.6139],[-97.8239,30.6157],[-97.8301,30.6314],[-97.8274,30.6316],[-97.8191,30.6119],[-97.8122,30.6117],[-97.8095,30.6083],[-97.806,30.6066],[-97.8005,30.6082],[-97.797,30.5998],[-97.7994,30.5955],[-97.8043,30.5906],[-97.7963,30.5896],[-97.7975,30.5883],[-97.7952,30.5858],[-97.7934,30.5873],[-97.7948,30.5853],[-97.7929,30.5877],[-97.7934,30.5901],[-97.7924,30.5883],[-97.7866,30.5897],[-97.7861,30.5887],[-97.7802,30.5917],[-97.7785,30.5878],[-97.787,30.5849],[-97.7865,30.5833],[-97.7919,30.5851],[-97.7927,30.583],[-97.7849,30.5765],[-97.7808,30.577],[-97.7811,30.5738],[-97.778,30.5694],[-97.7706,30.5718],[-97.7683,30.5662],[-97.7738,30.5645],[-97.7686,30.556],[-97.765,30.5527],[-97.7596,30.5558],[-97.7587,30.5537],[-97.7572,30.5579],[-97.7547,30.5596],[-97.755,30.5622],[-97.7513,30.5634],[-97.7562,30.5762],[-97.7459,30.5794],[-97.7479,30.5845],[-97.7419,30.5864],[-97.7393,30.5886],[-97.7364,30.5875],[-97.7323,30.5887],[-97.7279,30.5868],[-97.7271,30.5848],[-97.7261,30.5865],[-97.724,30.5864],[-97.7215,30.5847],[-97.7201,30.5807],[-97.7047,30.5742],[-97.7039,30.5717],[-97.6981,30.5733],[-97.6935,30.5751],[-97.6946,30.5774],[-97.6928,30.5882],[-97.6865,30.6077],[-97.6919,30.6291],[-97.6899,30.6384],[-97.6873,30.6426],[-97.6788,30.6509],[-97.6608,30.6799],[-97.6523,30.7019],[-97.6549,30.7039],[-97.6659,30.7197],[-97.6742,30.7255],[-97.6929,30.7196],[-97.6917,30.7172],[-97.6921,30.7133],[-97.6845,30.7139],[-97.6902,30.7086],[-97.7064,30.7015],[-97.7097,30.6929],[-97.7162,30.6876],[-97.7197,30.6794],[-97.7215,30.6701],[-97.7267,30.6666],[-97.7306,30.675],[-97.7363,30.6773],[-97.7494,30.6768],[-97.7507,30.6758],[-97.7518,30.6694],[-97.7579,30.6691],[-97.7662,30.6728],[-97.7752,30.6792],[-97.7806,30.681],[-97.7823,30.6801],[-97.7856,30.6808],[-97.8015,30.6905],[-97.8069,30.6899],[-97.8092,30.6883],[-97.817,30.6934],[-97.8203,30.6974],[-97.8268,30.6973],[-97.8288,30.6963],[-97.8286,30.6947],[-97.8314,30.6928],[-97.8327,30.6887],[-97.8352,30.6867],[-97.8342,30.6845],[-97.825,30.6806],[-97.8246,30.6792],[-97.8211,30.6776],[-97.8179,30.6778],[-97.8165,30.6758],[-97.818,30.6745],[-97.8176,30.6733],[-97.8152,30.6699],[-97.8119,30.6704],[-97.8071,30.6608],[-97.8172,30.6572],[-97.8182,30.6584],[-97.8367,30.6531],[-97.83,30.6451],[-97.8278,30.6377],[-97.8322,30.6382],[-97.8378,30.641],[-97.8396,30.6386],[-97.8385,30.6379],[-97.8392,30.6371],[-97.8396,30.6384],[-97.8476,30.636]]]},"properties":{"ZCTA5":"78628","BASENAME":"78628"}},{"type":"Feature","geometry":{"type":"Polygon","coordinates":[[[-98.0371,30.4205],[-98.0367,30.4184],[-98.0305,30.4158],[-98.0043,30.4143],[-97.9888,30.4149],[-97.9847,30.413],[-97.9841,30.4079],[-97.9855,30.4042],[-97.9929,30.3988],[-98.0017,30.3947],[-98.0148,30.3821],[-98.0161,30.3769],[-98.0133,30.3724],[-98.0107,30.371],[-97.9896,30.3775],[-97.9762,30.3901],[-97.9717,30.3929],[-97.944,30.3947],[-97.9413,30.3987],[-97.9408,30.4042],[-97.9423,30.408],[-97.9513,30.4198],[-97.9519,30.4267],[-97.9499,30.4312],[-97.9468,30.4342],[-97.9387,30.4373],[-97.9292,30.4368],[-97.92,30.433],[-97.9199,30.4376],[-97.9247,30.4468],[-97.9258,30.4533],[-97.9248,30.4574],[-97.9223,30.4602],[-97.9137,30.4646],[-97.9101,30.4645],[-97.9085,30.4664],[-97.9167,30.4759],[-97.9196,30.4859],[-97.9178,30.4871],[-97.9147,30.4973],[-97.9085,30.4987],[-97.9085,30.4975],[-97.9052,30.5006],[-97.9059,30.5021],[-97.9106,30.5011],[-97.9126,30.5023],[-97.9107,30.5053],[-97.9127,30.5064],[-97.9106,30.5135],[-97.9148,30.5053],[-97.9159,30.5091],[-97.9175,30.5098],[-97.9162,30.511],[-97.9201,30.5134],[-97.9202,30.5155],[-97.9245,30.509],[-97.9377,30.5143],[-97.9418,30.5077],[-97.9461,30.5097],[-97.951,30.5026],[-97.9641,30.5024],[-97.9681,30.5012],[-97.9675,30.5046],[-97.9706,30.5035],[-97.9737,30.506],[-97.9795,30.5061],[-97.9774,30.4985],[-97.979,30.4959],[-97.9811,30.498],[-97.9859,30.4974],[-97.9886,30.5004],[-97.9892,30.503],[-97.9961,30.5072],[-97.9986,30.5068],[-98.0005,30.5041],[-98.0025,30.5043],[-97.9996,30.4989],[-97.9995,30.4938],[-98.0055,30.4849],[-98.0102,30.4803],[-98.006,30.4781],[-98.0029,30.4736],[-97.9991,30.4642],[-97.9994,30.4571],[-98.0059,30.4504],[-98.0119,30.4492],[-98.0319,30.4322],[-98.0359,30.426],[-98.0371,30.4205]]]},"properties":{"ZCTA5":"78645","BASENAME":"78645"}},{"type":"Feature","geometry":{"type":"Polygon","coordinates":[[[-98.0666,30.5931],[-98.0625,30.5881],[-98.064,30.5826],[-98.0597,30.5775],[-98.0543,30.5744],[-98.0537,30.5721],[-98.0118,30.5518],[-98.0195,30.5401],[-97.9821,30.5224],[-97.9931,30.5057],[-97.9892,30.503],[-97.9886,30.5004],[-97.9859,30.4974],[-97.9811,30.498],[-97.979,30.4959],[-97.9774,30.497],[-97.9795,30.5061],[-97.9737,30.506],[-97.9706,30.5035],[-97.9675,30.5046],[-97.9681,30.5012],[-97.9641,30.5024],[-97.951,30.5026],[-97.9461,30.5097],[-97.9418,30.5077],[-97.9377,30.5143],[-97.9245,30.509],[-97.9202,30.5155],[-97.9201,30.5134],[-97.9162,30.511],[-97.9175,30.5098],[-97.9159,30.5091],[-97.9148,30.5053],[-97.9106,30.5135],[-97.9127,30.5064],[-97.9107,30.5053],[-97.9126,30.5023],[-97.9106,30.5011],[-97.9059,30.5021],[-97.9052,30.5006],[-97.9085,30.4975],[-97.9085,30.4987],[-97.9147,30.4973],[-97.9178,30.4871],[-97.9196,30.4859],[-97.9167,30.4759],[-97.9085,30.4664],[-97.9101,30.4645],[-97.9137,30.4646],[-97.9223,30.4602],[-97.9248,30.4574],[-97.9258,30.4533],[-97.9247,30.4468],[-97.9199,30.4376],[-97.92,30.433],[-97.9155,30.4295],[-97.9111,30.4222],[-97.8849,30.4268],[-97.88,30.4311],[-97.876,30.432],[-97.8749,30.4371],[-97.8731,30.4383],[-97.8737,30.4399],[-97.8657,30.4425],[-97.858,30.4483],[-97.8611,30.4512],[-97.8626,30.4572],[-97.8609,30.461],[-97.8557,30.4658],[-97.8548,30.4692],[-97.8573,30.4727],[-97.857,30.4798],[-97.8597,30.479],[-97.8596,30.4834],[-97.8615,30.4834],[-97.8641,30.4856],[-97.8635,30.4886],[-97.8602,30.4902],[-97.8592,30.4933],[-97.8622,30.4973],[-97.8584,30.5008],[-97.8626,30.5116],[-97.865,30.5135],[-97.868,30.5124],[-97.8688,30.5138],[-97.8717,30.5111],[-97.8709,30.5099],[-97.8719,30.5081],[-97.8737,30.5078],[-97.8742,30.5096],[-97.8782,30.5072],[-97.8804,30.508],[-97.8806,30.5098],[-97.879,30.5099],[-97.879,30.5112],[-97.8763,30.513],[-97.8814,30.5121],[-97.8829,30.5155],[-97.8803,30.5191],[-97.8812,30.5199],[-97.8777,30.5235],[-97.8742,30.5262],[-97.8717,30.524],[-97.8699,30.5295],[-97.8677,30.5314],[-97.8666,30.531],[-97.865,30.5334],[-97.8608,30.532],[-97.8477,30.536],[-97.8454,30.5379],[-97.8468,30.5421],[-97.8402,30.5442],[-97.8381,30.5395],[-97.8364,30.5401],[-97.8346,30.5389],[-97.8177,30.5442],[-97.8193,30.5505],[-97.8165,30.5401],[-97.8167,30.5371],[-97.8132,30.5359],[-97.8024,30.5378],[-97.8026,30.539],[-97.7817,30.5456],[-97.7821,30.5467],[-97.7795,30.5442],[-97.7788,30.5395],[-97.7786,30.5434],[-97.7767,30.5446],[-97.7777,30.5469],[-97.7717,30.5487],[-97.771,30.5472],[-97.7628,30.5497],[-97.7686,30.556],[-97.7738,30.5645],[-97.7683,30.5662],[-97.7706,30.5718],[-97.778,30.5694],[-97.7811,30.5738],[-97.7808,30.577],[-97.7849,30.5765],[-97.7927,30.583],[-97.7919,30.5851],[-97.7865,30.5833],[-97.787,30.5849],[-97.7785,30.5878],[-97.7802,30.5917],[-97.7861,30.5887],[-97.7866,30.5897],[-97.7924,30.5883],[-97.7934,30.5901],[-97.7929,30.5877],[-97.7948,30.5853],[-97.7934,30.5873],[-97.7952,30.5858],[-97.7975,30.5883],[-97.7963,30.5896],[-97.8043,30.5906],[-97.7994,30.5955],[-97.797,30.5998],[-97.8005,30.6082],[-97.806,30.6066],[-97.8095,30.6083],[-97.8122,30.6117],[-97.8191,30.6119],[-97.8274,30.6316],[-97.8301,30.6314],[-97.8239,30.6157],[-97.8269,30.6139],[-97.8256,30.6107],[-97.828,30.6093],[-97.831,30.6096],[-97.8375,30.6144],[-97.8464,30.6167],[-97.8461,30.6219],[-97.8443,30.6225],[-97.846,30.6238],[-97.8429,30.625],[-97.8435,30.6265],[-97.8387,30.6266],[-97.8387,30.631],[-97.8436,30.6314],[-97.8435,30.6296],[-97.8449,30.6298],[-97.8476,30.636],[-97.8563,30.6331],[-97.8581,30.6401],[-97.8619,30.6389],[-97.8644,30.6432],[-97.8648,30.6461],[-97.8635,30.6466],[-97.8815,30.6401],[-97.8765,30.6241],[-97.8834,30.6259],[-97.8916,30.631],[-97.8956,30.6285],[-97.8963,30.6312],[-97.8981,30.6312],[-97.9002,30.6375],[-97.9057,30.6358],[-97.9057,30.6373],[-97.9198,30.6327],[-97.9185,30.6296],[-97.9216,30.6286],[-97.9229,30.632],[-97.9256,30.6312],[-97.9278,30.6362],[-97.9291,30.636],[-97.9305,30.6331],[-97.9326,30.6339],[-97.9402,30.6322],[-97.9401,30.6306],[-97.9364,30.6279],[-97.9371,30.6261],[-97.9437,30.6273],[-97.945,30.6313],[-97.9393,30.6369],[-97.9415,30.6426],[-97.9526,30.6391],[-97.9509,30.6352],[-97.9553,30.632],[-97.9547,30.6272],[-97.9567,30.6282],[-97.9663,30.6237],[-97.9779,30.6221],[-97.9924,30.6095],[-97.998,30.613],[-98.0063,30.6275],[-98.0127,30.6168],[-98.0297,30.6147],[-98.0365,30.6117],[-98.0396,30.6186],[-98.0499,30.6242],[-98.0666,30.5931]]]},"properties":{"ZCTA5":"78641","BASENAME":"78641"}},{"type":"Feature","geometry":{"type":"Polygon","coordinates":[[[-97.8829,30.5155],[-97.8814,30.5121],[-97.8763,30.513],[-97.879,30.5112],[-97.879,30.5099],[-97.8806,30.5098],[-97.8804,30.508],[-97.8782,30.5072],[-97.8742,30.5096],[-97.8737,30.5078],[-97.8719,30.5081],[-97.8709,30.5099],[-97.8717,30.5111],[-97.8688,30.5138],[-97.868,30.5124],[-97.865,30.5135],[-97.8626,30.5116],[-97.8584,30.5008],[-97.8622,30.4973],[-97.8592,30.4933],[-97.8602,30.4902],[-97.8635,30.4886],[-97.8641,30.4856],[-97.8615,30.4834],[-97.8596,30.4834],[-97.8597,30.479],[-97.857,30.4798],[-97.8573,30.4727],[-97.8548,30.4692],[-97.8557,30.4658],[-97.8609,30.461],[-97.8626,30.4572],[-97.8611,30.4512],[-97.858,30.4483],[-97.8487,30.4527],[-97.8458,30.4574],[-97.8411,30.4599],[-97.8439,30.462],[-97.836,30.4643],[-97.8266,30.4575],[-97.8261,30.4559],[-97.8212,30.4617],[-97.8225,30.4628],[-97.82,30.4609],[-97.816,30.4622],[-97.8159,30.4635],[-97.8137,30.4642],[-97.8143,30.4656],[-97.8117,30.4665],[-97.8106,30.4639],[-97.797,30.4682],[-97.7989,30.4729],[-97.7939,30.4753],[-97.7944,30.4776],[-97.7955,30.4802],[-97.8025,30.4798],[-97.8049,30.4866],[-97.8071,30.4859],[-97.8082,30.4883],[-97.8065,30.4896],[-97.809,30.4917],[-97.807,30.4924],[-97.806,30.4952],[-97.7998,30.4978],[-97.7959,30.5028],[-97.7912,30.5054],[-97.7773,30.5035],[-97.774,30.5062],[-97.7717,30.5053],[-97.7642,30.5089],[-97.7584,30.5087],[-97.7553,30.5133],[-97.7454,30.5192],[-97.7479,30.5205],[-97.7494,30.5247],[-97.7524,30.5279],[-97.7631,30.5315],[-97.7628,30.536],[-97.7649,30.5408],[-97.76,30.5428],[-97.7628,30.5497],[-97.771,30.5472],[-97.7717,30.5487],[-97.7777,30.5469],[-97.7767,30.5446],[-97.7786,30.5434],[-97.7788,30.5395],[-97.7795,30.5442],[-97.7821,30.5467],[-97.7817,30.5456],[-97.8026,30.539],[-97.8024,30.5378],[-97.8132,30.5359],[-97.8167,30.5371],[-97.8191,30.5505],[-97.8177,30.5442],[-97.8346,30.5389],[-97.8364,30.5401],[-97.8381,30.5395],[-97.8402,30.5442],[-97.8468,30.5421],[-97.8454,30.5379],[-97.8477,30.536],[-97.8608,30.532],[-97.865,30.5334],[-97.8666,30.531],[-97.8677,30.5314],[-97.8699,30.5295],[-97.8717,30.524],[-97.8742,30.5262],[-97.8777,30.5235],[-97.8812,30.5199],[-97.8803,30.5191],[-97.8829,30.5155]]]},"properties":{"ZCTA5":"78613","BASENAME":"78613"}}]}